[
    {
        "isoName": "Afar",
        "nativeName": "Afaraf",
        "id": "aa",
        "code": "aa",
        "region": null,
        "regionName": null,
        "variant": null
    },
    {
        "isoName": "Afar",
        "nativeName": "Afaraf",
        "id": "aa_DJ",
        "code": "aa",
        "region": "DJ",
        "regionName": "Djibouti",
        "variant": null
    },
    {
        "isoName": "Afar",
        "nativeName": "Afaraf",
        "id": "aa_ER",
        "code": "aa",
        "region": "ER",
        "regionName": "Eritrea",
        "variant": null
    },
    {
        "isoName": "Afar",
        "nativeName": "Afaraf",
        "id": "aa_ER@saaho",
        "code": "aa",
        "region": null,
        "regionName": null,
        "variant": "ER@saaho"
    },
    {
        "isoName": "Afar",
        "nativeName": "Afaraf",
        "id": "aa_ET",
        "code": "aa",
        "region": "ET",
        "regionName": "Ethiopia",
        "variant": null
    },
    {
        "isoName": "Afrikaans",
        "nativeName": "Afrikaans",
        "id": "af",
        "code": "af",
        "region": null,
        "regionName": null,
        "variant": null
    },
    {
        "isoName": "Afrikaans",
        "nativeName": "Afrikaans",
        "id": "af_NA",
        "code": "af",
        "region": "NA",
        "regionName": "Namibia",
        "variant": null
    },
    {
        "isoName": "Afrikaans",
        "nativeName": "Afrikaans",
        "id": "af_ZA",
        "code": "af",
        "region": "ZA",
        "regionName": "South Africa",
        "variant": null
    },
    {
        "isoName": "Aghem",
        "nativeName": "Aghem",
        "id": "agq",
        "code": "agq",
        "region": null,
        "regionName": null,
        "variant": null
    },
    {
        "isoName": "Aguaruna",
        "nativeName": "Aguaruna",
        "id": "agr",
        "code": "agr",
        "region": null,
        "regionName": null,
        "variant": null
    },
    {
        "isoName": "Aguaruna",
        "nativeName": "Aguaruna",
        "id": "agr_PE",
        "code": "agr",
        "region": "PE",
        "regionName": "Peru",
        "variant": null
    },
    {
        "isoName": "Akan",
        "nativeName": "Akan",
        "id": "ak",
        "code": "ak",
        "region": null,
        "regionName": null,
        "variant": null
    },
    {
        "isoName": "Akan",
        "nativeName": "Akan",
        "id": "ak_GH",
        "code": "ak",
        "region": "GH",
        "regionName": "Ghana",
        "variant": null
    },
    {
        "isoName": "Amharic",
        "nativeName": "\u12a0\u121b\u122d\u129b",
        "id": "am",
        "code": "am",
        "region": null,
        "regionName": null,
        "variant": null
    },
    {
        "isoName": "Amharic",
        "nativeName": "\u12a0\u121b\u122d\u129b",
        "id": "am_ET",
        "code": "am",
        "region": "ET",
        "regionName": "Ethiopia",
        "variant": null
    },
    {
        "isoName": "Aragonese",
        "nativeName": "aragon\u00e9s",
        "id": "an",
        "code": "an",
        "region": null,
        "regionName": null,
        "variant": null
    },
    {
        "isoName": "Aragonese",
        "nativeName": "aragon\u00e9s",
        "id": "an_ES",
        "code": "an",
        "region": "ES",
        "regionName": "Spain",
        "variant": null
    },
    {
        "isoName": "Angika",
        "nativeName": "Angika",
        "id": "anp",
        "code": "anp",
        "region": null,
        "regionName": null,
        "variant": null
    },
    {
        "isoName": "Angika",
        "nativeName": "Angika",
        "id": "anp_IN",
        "code": "anp",
        "region": "IN",
        "regionName": "India",
        "variant": null
    },
    {
        "isoName": "Arabic",
        "nativeName": "\u0627\u0644\u0639\u0631\u0628\u064a\u0629",
        "id": "ar",
        "code": "ar",
        "region": null,
        "regionName": null,
        "variant": null
    },
    {
        "isoName": "Arabic",
        "nativeName": "\u0627\u0644\u0639\u0631\u0628\u064a\u0629",
        "id": "ar_AE",
        "code": "ar",
        "region": "AE",
        "regionName": "United Arab Emirates",
        "variant": null
    },
    {
        "isoName": "Arabic",
        "nativeName": "\u0627\u0644\u0639\u0631\u0628\u064a\u0629",
        "id": "ar_BH",
        "code": "ar",
        "region": "BH",
        "regionName": "Bahrain",
        "variant": null
    },
    {
        "isoName": "Arabic",
        "nativeName": "\u0627\u0644\u0639\u0631\u0628\u064a\u0629",
        "id": "ar_DJ",
        "code": "ar",
        "region": "DJ",
        "regionName": "Djibouti",
        "variant": null
    },
    {
        "isoName": "Arabic",
        "nativeName": "\u0627\u0644\u0639\u0631\u0628\u064a\u0629",
        "id": "ar_DZ",
        "code": "ar",
        "region": "DZ",
        "regionName": "Algeria",
        "variant": null
    },
    {
        "isoName": "Arabic",
        "nativeName": "\u0627\u0644\u0639\u0631\u0628\u064a\u0629",
        "id": "ar_EG",
        "code": "ar",
        "region": "EG",
        "regionName": "Egypt",
        "variant": null
    },
    {
        "isoName": "Arabic",
        "nativeName": "\u0627\u0644\u0639\u0631\u0628\u064a\u0629",
        "id": "ar_EH",
        "code": "ar",
        "region": "EH",
        "regionName": "Western Sahara",
        "variant": null
    },
    {
        "isoName": "Arabic",
        "nativeName": "\u0627\u0644\u0639\u0631\u0628\u064a\u0629",
        "id": "ar_ER",
        "code": "ar",
        "region": "ER",
        "regionName": "Eritrea",
        "variant": null
    },
    {
        "isoName": "Arabic",
        "nativeName": "\u0627\u0644\u0639\u0631\u0628\u064a\u0629",
        "id": "ar_IL",
        "code": "ar",
        "region": "IL",
        "regionName": "Israel",
        "variant": null
    },
    {
        "isoName": "Arabic",
        "nativeName": "\u0627\u0644\u0639\u0631\u0628\u064a\u0629",
        "id": "ar_IN",
        "code": "ar",
        "region": "IN",
        "regionName": "India",
        "variant": null
    },
    {
        "isoName": "Arabic",
        "nativeName": "\u0627\u0644\u0639\u0631\u0628\u064a\u0629",
        "id": "ar_IQ",
        "code": "ar",
        "region": "IQ",
        "regionName": "Iraq",
        "variant": null
    },
    {
        "isoName": "Arabic",
        "nativeName": "\u0627\u0644\u0639\u0631\u0628\u064a\u0629",
        "id": "ar_JO",
        "code": "ar",
        "region": "JO",
        "regionName": "Jordan",
        "variant": null
    },
    {
        "isoName": "Arabic",
        "nativeName": "\u0627\u0644\u0639\u0631\u0628\u064a\u0629",
        "id": "ar_KM",
        "code": "ar",
        "region": "KM",
        "regionName": "Comoros",
        "variant": null
    },
    {
        "isoName": "Arabic",
        "nativeName": "\u0627\u0644\u0639\u0631\u0628\u064a\u0629",
        "id": "ar_KW",
        "code": "ar",
        "region": "KW",
        "regionName": "Kuwait",
        "variant": null
    },
    {
        "isoName": "Arabic",
        "nativeName": "\u0627\u0644\u0639\u0631\u0628\u064a\u0629",
        "id": "ar_LB",
        "code": "ar",
        "region": "LB",
        "regionName": "Lebanon",
        "variant": null
    },
    {
        "isoName": "Arabic",
        "nativeName": "\u0627\u0644\u0639\u0631\u0628\u064a\u0629",
        "id": "ar_LY",
        "code": "ar",
        "region": "LY",
        "regionName": "Libya",
        "variant": null
    },
    {
        "isoName": "Arabic",
        "nativeName": "\u0627\u0644\u0639\u0631\u0628\u064a\u0629",
        "id": "ar_MA",
        "code": "ar",
        "region": "MA",
        "regionName": "Morocco",
        "variant": null
    },
    {
        "isoName": "Arabic",
        "nativeName": "\u0627\u0644\u0639\u0631\u0628\u064a\u0629",
        "id": "ar_MR",
        "code": "ar",
        "region": "MR",
        "regionName": "Mauritania",
        "variant": null
    },
    {
        "isoName": "Arabic",
        "nativeName": "\u0627\u0644\u0639\u0631\u0628\u064a\u0629",
        "id": "ar_OM",
        "code": "ar",
        "region": "OM",
        "regionName": "Oman",
        "variant": null
    },
    {
        "isoName": "Arabic",
        "nativeName": "\u0627\u0644\u0639\u0631\u0628\u064a\u0629",
        "id": "ar_PS",
        "code": "ar",
        "region": "PS",
        "regionName": "Palestine",
        "variant": null
    },
    {
        "isoName": "Arabic",
        "nativeName": "\u0627\u0644\u0639\u0631\u0628\u064a\u0629",
        "id": "ar_QA",
        "code": "ar",
        "region": "QA",
        "regionName": "Qatar",
        "variant": null
    },
    {
        "isoName": "Arabic",
        "nativeName": "\u0627\u0644\u0639\u0631\u0628\u064a\u0629",
        "id": "ar_SA",
        "code": "ar",
        "region": "SA",
        "regionName": "Saudi Arabia",
        "variant": null
    },
    {
        "isoName": "Arabic",
        "nativeName": "\u0627\u0644\u0639\u0631\u0628\u064a\u0629",
        "id": "ar_SD",
        "code": "ar",
        "region": "SD",
        "regionName": "Sudan",
        "variant": null
    },
    {
        "isoName": "Arabic",
        "nativeName": "\u0627\u0644\u0639\u0631\u0628\u064a\u0629",
        "id": "ar_SO",
        "code": "ar",
        "region": "SO",
        "regionName": "Somalia",
        "variant": null
    },
    {
        "isoName": "Arabic",
        "nativeName": "\u0627\u0644\u0639\u0631\u0628\u064a\u0629",
        "id": "ar_SS",
        "code": "ar",
        "region": "SS",
        "regionName": "South Sudan",
        "variant": null
    },
    {
        "isoName": "Arabic",
        "nativeName": "\u0627\u0644\u0639\u0631\u0628\u064a\u0629",
        "id": "ar_SY",
        "code": "ar",
        "region": "SY",
        "regionName": "Syrian Arab Republic",
        "variant": null
    },
    {
        "isoName": "Arabic",
        "nativeName": "\u0627\u0644\u0639\u0631\u0628\u064a\u0629",
        "id": "ar_Shakl",
        "code": "ar",
        "region": null,
        "regionName": null,
        "variant": "Shakl"
    },
    {
        "isoName": "Arabic",
        "nativeName": "\u0627\u0644\u0639\u0631\u0628\u064a\u0629",
        "id": "ar_TD",
        "code": "ar",
        "region": "TD",
        "regionName": "Chad",
        "variant": null
    },
    {
        "isoName": "Arabic",
        "nativeName": "\u0627\u0644\u0639\u0631\u0628\u064a\u0629",
        "id": "ar_TN",
        "code": "ar",
        "region": "TN",
        "regionName": "Tunisia",
        "variant": null
    },
    {
        "isoName": "Arabic",
        "nativeName": "\u0627\u0644\u0639\u0631\u0628\u064a\u0629",
        "id": "ar_YE",
        "code": "ar",
        "region": "YE",
        "regionName": "Yemen",
        "variant": null
    },
    {
        "isoName": "Assamese",
        "nativeName": "\u0985\u09b8\u09ae\u09c0\u09af\u09bc\u09be",
        "id": "as",
        "code": "as",
        "region": null,
        "regionName": null,
        "variant": null
    },
    {
        "isoName": "Assamese",
        "nativeName": "\u0985\u09b8\u09ae\u09c0\u09af\u09bc\u09be",
        "id": "as_IN",
        "code": "as",
        "region": "IN",
        "regionName": "India",
        "variant": null
    },
    {
        "isoName": "Asu",
        "nativeName": "Asu",
        "id": "asa",
        "code": "asa",
        "region": null,
        "regionName": null,
        "variant": null
    },
    {
        "isoName": "Asturian",
        "nativeName": "Asturian",
        "id": "ast",
        "code": "ast",
        "region": null,
        "regionName": null,
        "variant": null
    },
    {
        "isoName": "Asturian",
        "nativeName": "Asturian",
        "id": "ast_ES",
        "code": "ast",
        "region": "ES",
        "regionName": "Spain",
        "variant": null
    },
    {
        "isoName": "Southern Aymara",
        "nativeName": "Southern Aymara",
        "id": "ayc",
        "code": "ayc",
        "region": null,
        "regionName": null,
        "variant": null
    },
    {
        "isoName": "Southern Aymara",
        "nativeName": "Southern Aymara",
        "id": "ayc_PE",
        "code": "ayc",
        "region": "PE",
        "regionName": "Peru",
        "variant": null
    },
    {
        "isoName": "Azerbaijani",
        "nativeName": "az\u0259rbaycan dili",
        "id": "az",
        "code": "az",
        "region": null,
        "regionName": null,
        "variant": null
    },
    {
        "isoName": "Azerbaijani",
        "nativeName": "az\u0259rbaycan dili",
        "id": "az_AZ",
        "code": "az",
        "region": "AZ",
        "regionName": "Azerbaijan",
        "variant": null
    },
    {
        "isoName": "Azerbaijani",
        "nativeName": "az\u0259rbaycan dili",
        "id": "az_Cyrl",
        "code": "az",
        "region": null,
        "regionName": null,
        "variant": "Cyrillic"
    },
    {
        "isoName": "Azerbaijani",
        "nativeName": "az\u0259rbaycan dili",
        "id": "az_IR",
        "code": "az",
        "region": "IR",
        "regionName": "Iran",
        "variant": null
    },
    {
        "isoName": "Azerbaijani",
        "nativeName": "az\u0259rbaycan dili",
        "id": "az_Latn",
        "code": "az",
        "region": null,
        "regionName": null,
        "variant": "Latin"
    },
    {
        "isoName": "Basaa",
        "nativeName": "Basaa",
        "id": "bas",
        "code": "bas",
        "region": null,
        "regionName": null,
        "variant": null
    },
    {
        "isoName": "Belarusian",
        "nativeName": "\u0431\u0435\u043b\u0430\u0440\u0443\u0441\u043a\u0430\u044f \u043c\u043e\u0432\u0430",
        "id": "be",
        "code": "be",
        "region": null,
        "regionName": null,
        "variant": null
    },
    {
        "isoName": "Belarusian",
        "nativeName": "\u0431\u0435\u043b\u0430\u0440\u0443\u0441\u043a\u0430\u044f \u043c\u043e\u0432\u0430",
        "id": "be_BY",
        "code": "be",
        "region": "BY",
        "regionName": "Belarus",
        "variant": null
    },
    {
        "isoName": "Belarusian",
        "nativeName": "\u0431\u0435\u043b\u0430\u0440\u0443\u0441\u043a\u0430\u044f \u043c\u043e\u0432\u0430",
        "id": "be_BY@latin",
        "code": "be",
        "region": null,
        "regionName": null,
        "variant": "BY@latin"
    },
    {
        "isoName": "Bemba",
        "nativeName": "Bemba",
        "id": "bem",
        "code": "bem",
        "region": null,
        "regionName": null,
        "variant": null
    },
    {
        "isoName": "Bemba",
        "nativeName": "Bemba",
        "id": "bem_ZM",
        "code": "bem",
        "region": "ZM",
        "regionName": "Zambia",
        "variant": null
    },
    {
        "isoName": "ber",
        "nativeName": "ber",
        "id": "ber",
        "code": "ber",
        "region": null,
        "regionName": null,
        "variant": null
    },
    {
        "isoName": "ber",
        "nativeName": "ber",
        "id": "ber_DZ",
        "code": "ber",
        "region": "DZ",
        "regionName": "Algeria",
        "variant": null
    },
    {
        "isoName": "ber",
        "nativeName": "ber",
        "id": "ber_MA",
        "code": "ber",
        "region": "MA",
        "regionName": "Morocco",
        "variant": null
    },
    {
        "isoName": "Bena",
        "nativeName": "Bena",
        "id": "bez",
        "code": "bez",
        "region": null,
        "regionName": null,
        "variant": null
    },
    {
        "isoName": "Bulgarian",
        "nativeName": "\u0431\u044a\u043b\u0433\u0430\u0440\u0441\u043a\u0438 \u0435\u0437\u0438\u043a",
        "id": "bg",
        "code": "bg",
        "region": null,
        "regionName": null,
        "variant": null
    },
    {
        "isoName": "Bulgarian",
        "nativeName": "\u0431\u044a\u043b\u0433\u0430\u0440\u0441\u043a\u0438 \u0435\u0437\u0438\u043a",
        "id": "bg_BG",
        "code": "bg",
        "region": "BG",
        "regionName": "Bulgaria",
        "variant": null
    },
    {
        "isoName": "Bhili",
        "nativeName": "Bhili",
        "id": "bhb",
        "code": "bhb",
        "region": null,
        "regionName": null,
        "variant": null
    },
    {
        "isoName": "Bhili",
        "nativeName": "Bhili",
        "id": "bhb_IN",
        "code": "bhb",
        "region": "IN",
        "regionName": "India",
        "variant": null
    },
    {
        "isoName": "Bhojpuri",
        "nativeName": "Bhojpuri",
        "id": "bho",
        "code": "bho",
        "region": null,
        "regionName": null,
        "variant": null
    },
    {
        "isoName": "Bhojpuri",
        "nativeName": "Bhojpuri",
        "id": "bho_IN",
        "code": "bho",
        "region": "IN",
        "regionName": "India",
        "variant": null
    },
    {
        "isoName": "Bislama",
        "nativeName": "Bislama",
        "id": "bi",
        "code": "bi",
        "region": null,
        "regionName": null,
        "variant": null
    },
    {
        "isoName": "Bislama",
        "nativeName": "Bislama",
        "id": "bi_VU",
        "code": "bi",
        "region": "VU",
        "regionName": "Vanuatu",
        "variant": null
    },
    {
        "isoName": "Bambara",
        "nativeName": "bamanankan",
        "id": "bm",
        "code": "bm",
        "region": null,
        "regionName": null,
        "variant": null
    },
    {
        "isoName": "Bengali",
        "nativeName": "\u09ac\u09be\u0982\u09b2\u09be",
        "id": "bn",
        "code": "bn",
        "region": null,
        "regionName": null,
        "variant": null
    },
    {
        "isoName": "Bengali",
        "nativeName": "\u09ac\u09be\u0982\u09b2\u09be",
        "id": "bn_BD",
        "code": "bn",
        "region": "BD",
        "regionName": "Bangladesh",
        "variant": null
    },
    {
        "isoName": "Bengali",
        "nativeName": "\u09ac\u09be\u0982\u09b2\u09be",
        "id": "bn_IN",
        "code": "bn",
        "region": "IN",
        "regionName": "India",
        "variant": null
    },
    {
        "isoName": "Tibetan",
        "nativeName": "\u0f56\u0f7c\u0f51\u0f0b\u0f61\u0f72\u0f42",
        "id": "bo",
        "code": "bo",
        "region": null,
        "regionName": null,
        "variant": null
    },
    {
        "isoName": "Tibetan",
        "nativeName": "\u0f56\u0f7c\u0f51\u0f0b\u0f61\u0f72\u0f42",
        "id": "bo_CN",
        "code": "bo",
        "region": "CN",
        "regionName": "China",
        "variant": null
    },
    {
        "isoName": "Tibetan",
        "nativeName": "\u0f56\u0f7c\u0f51\u0f0b\u0f61\u0f72\u0f42",
        "id": "bo_IN",
        "code": "bo",
        "region": "IN",
        "regionName": "India",
        "variant": null
    },
    {
        "isoName": "Breton",
        "nativeName": "brezhoneg",
        "id": "br",
        "code": "br",
        "region": null,
        "regionName": null,
        "variant": null
    },
    {
        "isoName": "Breton",
        "nativeName": "brezhoneg",
        "id": "br_FR",
        "code": "br",
        "region": "FR",
        "regionName": "France",
        "variant": null
    },
    {
        "isoName": "Bodo",
        "nativeName": "Bodo",
        "id": "brx",
        "code": "brx",
        "region": null,
        "regionName": null,
        "variant": null
    },
    {
        "isoName": "Bodo",
        "nativeName": "Bodo",
        "id": "brx_IN",
        "code": "brx",
        "region": "IN",
        "regionName": "India",
        "variant": null
    },
    {
        "isoName": "Bosnian",
        "nativeName": "bosanski jezik",
        "id": "bs",
        "code": "bs",
        "region": null,
        "regionName": null,
        "variant": null
    },
    {
        "isoName": "Bosnian",
        "nativeName": "bosanski jezik",
        "id": "bs_BA",
        "code": "bs",
        "region": "BA",
        "regionName": "Bosnia and Herzegovina",
        "variant": null
    },
    {
        "isoName": "Bosnian",
        "nativeName": "bosanski jezik",
        "id": "bs_Cyrl",
        "code": "bs",
        "region": null,
        "regionName": null,
        "variant": "Cyrillic"
    },
    {
        "isoName": "Bosnian",
        "nativeName": "bosanski jezik",
        "id": "bs_Latn",
        "code": "bs",
        "region": null,
        "regionName": null,
        "variant": "Latin"
    },
    {
        "isoName": "Bilin",
        "nativeName": "Bilin",
        "id": "byn",
        "code": "byn",
        "region": null,
        "regionName": null,
        "variant": null
    },
    {
        "isoName": "Bilin",
        "nativeName": "Bilin",
        "id": "byn_ER",
        "code": "byn",
        "region": "ER",
        "regionName": "Eritrea",
        "variant": null
    },
    {
        "isoName": "Catalan, Valencian",
        "nativeName": "catal\u00e0, valenci\u00e0",
        "id": "ca",
        "code": "ca",
        "region": null,
        "regionName": null,
        "variant": null
    },
    {
        "isoName": "Catalan, Valencian",
        "nativeName": "catal\u00e0, valenci\u00e0",
        "id": "ca_AD",
        "code": "ca",
        "region": "AD",
        "regionName": "Andorra",
        "variant": null
    },
    {
        "isoName": "Catalan, Valencian",
        "nativeName": "catal\u00e0, valenci\u00e0",
        "id": "ca_ES",
        "code": "ca",
        "region": "ES",
        "regionName": "Spain",
        "variant": null
    },
    {
        "isoName": "Catalan, Valencian",
        "nativeName": "catal\u00e0, valenci\u00e0",
        "id": "ca_ES_Valencia",
        "code": "ca",
        "region": "ES",
        "regionName": "Spain",
        "variant": null
    },
    {
        "isoName": "Catalan, Valencian",
        "nativeName": "catal\u00e0, valenci\u00e0",
        "id": "ca_FR",
        "code": "ca",
        "region": "FR",
        "regionName": "France",
        "variant": null
    },
    {
        "isoName": "Catalan, Valencian",
        "nativeName": "catal\u00e0, valenci\u00e0",
        "id": "ca_IT",
        "code": "ca",
        "region": "IT",
        "regionName": "Italy",
        "variant": null
    },
    {
        "isoName": "Chakma",
        "nativeName": "Chakma",
        "id": "ccp",
        "code": "ccp",
        "region": null,
        "regionName": null,
        "variant": null
    },
    {
        "isoName": "Chakma",
        "nativeName": "Chakma",
        "id": "ccp_IN",
        "code": "ccp",
        "region": "IN",
        "regionName": "India",
        "variant": null
    },
    {
        "isoName": "Chechen",
        "nativeName": "\u043d\u043e\u0445\u0447\u0438\u0439\u043d \u043c\u043e\u0442\u0442",
        "id": "ce",
        "code": "ce",
        "region": null,
        "regionName": null,
        "variant": null
    },
    {
        "isoName": "Chechen",
        "nativeName": "\u043d\u043e\u0445\u0447\u0438\u0439\u043d \u043c\u043e\u0442\u0442",
        "id": "ce_RU",
        "code": "ce",
        "region": "RU",
        "regionName": "Russian Federation",
        "variant": null
    },
    {
        "isoName": "Chiga",
        "nativeName": "Chiga",
        "id": "cgg",
        "code": "cgg",
        "region": null,
        "regionName": null,
        "variant": null
    },
    {
        "isoName": "Cherokee",
        "nativeName": "Cherokee",
        "id": "chr",
        "code": "chr",
        "region": null,
        "regionName": null,
        "variant": null
    },
    {
        "isoName": "Cherokee",
        "nativeName": "Cherokee",
        "id": "chr_US",
        "code": "chr",
        "region": "US",
        "regionName": "United States of America",
        "variant": null
    },
    {
        "isoName": "ckb",
        "nativeName": "ckb",
        "id": "ckb",
        "code": "ckb",
        "region": null,
        "regionName": null,
        "variant": null
    },
    {
        "isoName": "Chinese",
        "nativeName": "Chinese",
        "id": "cmn",
        "code": "cmn",
        "region": null,
        "regionName": null,
        "variant": null
    },
    {
        "isoName": "Chinese",
        "nativeName": "Chinese",
        "id": "cmn_TW",
        "code": "cmn",
        "region": "TW",
        "regionName": "Taiwan",
        "variant": null
    },
    {
        "isoName": "Crimean Turkish",
        "nativeName": "Crimean Turkish",
        "id": "crh",
        "code": "crh",
        "region": null,
        "regionName": null,
        "variant": null
    },
    {
        "isoName": "Crimean Turkish",
        "nativeName": "Crimean Turkish",
        "id": "crh_UA",
        "code": "crh",
        "region": "UA",
        "regionName": "Ukraine",
        "variant": null
    },
    {
        "isoName": "Czech",
        "nativeName": "\u010de\u0161tina, \u010desk\u00fd jazyk",
        "id": "cs",
        "code": "cs",
        "region": null,
        "regionName": null,
        "variant": null
    },
    {
        "isoName": "Czech",
        "nativeName": "\u010de\u0161tina, \u010desk\u00fd jazyk",
        "id": "cs_CZ",
        "code": "cs",
        "region": "CZ",
        "regionName": "Czechia",
        "variant": null
    },
    {
        "isoName": "Kashubian",
        "nativeName": "Kashubian",
        "id": "csb",
        "code": "csb",
        "region": null,
        "regionName": null,
        "variant": null
    },
    {
        "isoName": "Kashubian",
        "nativeName": "Kashubian",
        "id": "csb_PL",
        "code": "csb",
        "region": "PL",
        "regionName": "Poland",
        "variant": null
    },
    {
        "isoName": "Church\u00a0Slavic, Church\u00a0Slavonic,\u00a0Old\u00a0Church\u00a0Slavonic, Old\u00a0Slavonic,\u00a0Old\u00a0Bulgarian",
        "nativeName": "\u0469\u0437\u044b\u043a\u044a \u0441\u043b\u043e\u0432\u0463\u043d\u044c\u0441\u043a\u044a",
        "id": "cu",
        "code": "cu",
        "region": null,
        "regionName": null,
        "variant": null
    },
    {
        "isoName": "Chuvash",
        "nativeName": "\u0447\u04d1\u0432\u0430\u0448 \u0447\u04d7\u043b\u0445\u0438",
        "id": "cv",
        "code": "cv",
        "region": null,
        "regionName": null,
        "variant": null
    },
    {
        "isoName": "Chuvash",
        "nativeName": "\u0447\u04d1\u0432\u0430\u0448 \u0447\u04d7\u043b\u0445\u0438",
        "id": "cv_RU",
        "code": "cv",
        "region": "RU",
        "regionName": "Russian Federation",
        "variant": null
    },
    {
        "isoName": "Welsh",
        "nativeName": "Cymraeg",
        "id": "cy",
        "code": "cy",
        "region": null,
        "regionName": null,
        "variant": null
    },
    {
        "isoName": "Welsh",
        "nativeName": "Cymraeg",
        "id": "cy_GB",
        "code": "cy",
        "region": "GB",
        "regionName": "United Kingdom of Great Britain and Northern Ireland",
        "variant": null
    },
    {
        "isoName": "Danish",
        "nativeName": "dansk",
        "id": "da",
        "code": "da",
        "region": null,
        "regionName": null,
        "variant": null
    },
    {
        "isoName": "Danish",
        "nativeName": "dansk",
        "id": "da_DK",
        "code": "da",
        "region": "DK",
        "regionName": "Denmark",
        "variant": null
    },
    {
        "isoName": "Danish",
        "nativeName": "dansk",
        "id": "da_GL",
        "code": "da",
        "region": "GL",
        "regionName": "Greenland",
        "variant": null
    },
    {
        "isoName": "Taita",
        "nativeName": "Taita",
        "id": "dav",
        "code": "dav",
        "region": null,
        "regionName": null,
        "variant": null
    },
    {
        "isoName": "German",
        "nativeName": "Deutsch",
        "id": "de",
        "code": "de",
        "region": null,
        "regionName": null,
        "variant": null
    },
    {
        "isoName": "German",
        "nativeName": "Deutsch",
        "id": "de_AT",
        "code": "de",
        "region": "AT",
        "regionName": "Austria",
        "variant": null
    },
    {
        "isoName": "German",
        "nativeName": "Deutsch",
        "id": "de_BE",
        "code": "de",
        "region": "BE",
        "regionName": "Belgium",
        "variant": null
    },
    {
        "isoName": "German",
        "nativeName": "Deutsch",
        "id": "de_CH",
        "code": "de",
        "region": "CH",
        "regionName": "Switzerland",
        "variant": null
    },
    {
        "isoName": "German",
        "nativeName": "Deutsch",
        "id": "de_DE",
        "code": "de",
        "region": "DE",
        "regionName": "Germany",
        "variant": null
    },
    {
        "isoName": "German",
        "nativeName": "Deutsch",
        "id": "de_IT",
        "code": "de",
        "region": "IT",
        "regionName": "Italy",
        "variant": null
    },
    {
        "isoName": "German",
        "nativeName": "Deutsch",
        "id": "de_LI",
        "code": "de",
        "region": "LI",
        "regionName": "Liechtenstein",
        "variant": null
    },
    {
        "isoName": "German",
        "nativeName": "Deutsch",
        "id": "de_LU",
        "code": "de",
        "region": "LU",
        "regionName": "Luxembourg",
        "variant": null
    },
    {
        "isoName": "Zarma",
        "nativeName": "Zarma",
        "id": "dje",
        "code": "dje",
        "region": null,
        "regionName": null,
        "variant": null
    },
    {
        "isoName": "Dogri (macrolanguage)",
        "nativeName": "Dogri (macrolanguage)",
        "id": "doi",
        "code": "doi",
        "region": null,
        "regionName": null,
        "variant": null
    },
    {
        "isoName": "Dogri (macrolanguage)",
        "nativeName": "Dogri (macrolanguage)",
        "id": "doi_IN",
        "code": "doi",
        "region": "IN",
        "regionName": "India",
        "variant": null
    },
    {
        "isoName": "Lower Sorbian",
        "nativeName": "Lower Sorbian",
        "id": "dsb",
        "code": "dsb",
        "region": null,
        "regionName": null,
        "variant": null
    },
    {
        "isoName": "Lower Sorbian",
        "nativeName": "Lower Sorbian",
        "id": "dsb_DE",
        "code": "dsb",
        "region": "DE",
        "regionName": "Germany",
        "variant": null
    },
    {
        "isoName": "Duala",
        "nativeName": "Duala",
        "id": "dua",
        "code": "dua",
        "region": null,
        "regionName": null,
        "variant": null
    },
    {
        "isoName": "Divehi, Dhivehi, Maldivian",
        "nativeName": "\u078b\u07a8\u0788\u07ac\u0780\u07a8",
        "id": "dv",
        "code": "dv",
        "region": null,
        "regionName": null,
        "variant": null
    },
    {
        "isoName": "Divehi, Dhivehi, Maldivian",
        "nativeName": "\u078b\u07a8\u0788\u07ac\u0780\u07a8",
        "id": "dv_MV",
        "code": "dv",
        "region": "MV",
        "regionName": "Maldives",
        "variant": null
    },
    {
        "isoName": "Jola-Fonyi",
        "nativeName": "Jola-Fonyi",
        "id": "dyo",
        "code": "dyo",
        "region": null,
        "regionName": null,
        "variant": null
    },
    {
        "isoName": "Dzongkha",
        "nativeName": "\u0f62\u0fab\u0f7c\u0f44\u0f0b\u0f41",
        "id": "dz",
        "code": "dz",
        "region": null,
        "regionName": null,
        "variant": null
    },
    {
        "isoName": "Dzongkha",
        "nativeName": "\u0f62\u0fab\u0f7c\u0f44\u0f0b\u0f41",
        "id": "dz_BT",
        "code": "dz",
        "region": "BT",
        "regionName": "Bhutan",
        "variant": null
    },
    {
        "isoName": "Embu",
        "nativeName": "Embu",
        "id": "ebu",
        "code": "ebu",
        "region": null,
        "regionName": null,
        "variant": null
    },
    {
        "isoName": "Ewe",
        "nativeName": "E\u028begbe",
        "id": "ee",
        "code": "ee",
        "region": null,
        "regionName": null,
        "variant": null
    },
    {
        "isoName": "Ewe",
        "nativeName": "E\u028begbe",
        "id": "ee_TG",
        "code": "ee",
        "region": "TG",
        "regionName": "Togo",
        "variant": null
    },
    {
        "isoName": "Greek\u00a0(modern)",
        "nativeName": "\u03b5\u03bb\u03bb\u03b7\u03bd\u03b9\u03ba\u03ac",
        "id": "el",
        "code": "el",
        "region": null,
        "regionName": null,
        "variant": null
    },
    {
        "isoName": "Greek\u00a0(modern)",
        "nativeName": "\u03b5\u03bb\u03bb\u03b7\u03bd\u03b9\u03ba\u03ac",
        "id": "el_CY",
        "code": "el",
        "region": "CY",
        "regionName": "Cyprus",
        "variant": null
    },
    {
        "isoName": "Greek\u00a0(modern)",
        "nativeName": "\u03b5\u03bb\u03bb\u03b7\u03bd\u03b9\u03ba\u03ac",
        "id": "el_GR",
        "code": "el",
        "region": "GR",
        "regionName": "Greece",
        "variant": null
    },
    {
        "isoName": "English",
        "nativeName": "English",
        "id": "en",
        "code": "en",
        "region": null,
        "regionName": null,
        "variant": null
    },
    {
        "isoName": "English",
        "nativeName": "English",
        "id": "en_001",
        "code": "en",
        "region": null,
        "regionName": null,
        "variant": "001"
    },
    {
        "isoName": "English",
        "nativeName": "English",
        "id": "en_150",
        "code": "en",
        "region": null,
        "regionName": null,
        "variant": "150"
    },
    {
        "isoName": "English",
        "nativeName": "English",
        "id": "en_AG",
        "code": "en",
        "region": "AG",
        "regionName": "Antigua and Barbuda",
        "variant": null
    },
    {
        "isoName": "English",
        "nativeName": "English",
        "id": "en_AI",
        "code": "en",
        "region": "AI",
        "regionName": "Anguilla",
        "variant": null
    },
    {
        "isoName": "English",
        "nativeName": "English",
        "id": "en_AS",
        "code": "en",
        "region": "AS",
        "regionName": "American Samoa",
        "variant": null
    },
    {
        "isoName": "English",
        "nativeName": "English",
        "id": "en_AT",
        "code": "en",
        "region": "AT",
        "regionName": "Austria",
        "variant": null
    },
    {
        "isoName": "English",
        "nativeName": "English",
        "id": "en_AU",
        "code": "en",
        "region": "AU",
        "regionName": "Australia",
        "variant": null
    },
    {
        "isoName": "English",
        "nativeName": "English",
        "id": "en_BB",
        "code": "en",
        "region": "BB",
        "regionName": "Barbados",
        "variant": null
    },
    {
        "isoName": "English",
        "nativeName": "English",
        "id": "en_BE",
        "code": "en",
        "region": "BE",
        "regionName": "Belgium",
        "variant": null
    },
    {
        "isoName": "English",
        "nativeName": "English",
        "id": "en_BI",
        "code": "en",
        "region": "BI",
        "regionName": "Burundi",
        "variant": null
    },
    {
        "isoName": "English",
        "nativeName": "English",
        "id": "en_BM",
        "code": "en",
        "region": "BM",
        "regionName": "Bermuda",
        "variant": null
    },
    {
        "isoName": "English",
        "nativeName": "English",
        "id": "en_BS",
        "code": "en",
        "region": "BS",
        "regionName": "Bahamas",
        "variant": null
    },
    {
        "isoName": "English",
        "nativeName": "English",
        "id": "en_BW",
        "code": "en",
        "region": "BW",
        "regionName": "Botswana",
        "variant": null
    },
    {
        "isoName": "English",
        "nativeName": "English",
        "id": "en_BZ",
        "code": "en",
        "region": "BZ",
        "regionName": "Belize",
        "variant": null
    },
    {
        "isoName": "English",
        "nativeName": "English",
        "id": "en_CA",
        "code": "en",
        "region": "CA",
        "regionName": "Canada",
        "variant": null
    },
    {
        "isoName": "English",
        "nativeName": "English",
        "id": "en_CC",
        "code": "en",
        "region": "CC",
        "regionName": "Cocos (Keeling) Islands",
        "variant": null
    },
    {
        "isoName": "English",
        "nativeName": "English",
        "id": "en_CH",
        "code": "en",
        "region": "CH",
        "regionName": "Switzerland",
        "variant": null
    },
    {
        "isoName": "English",
        "nativeName": "English",
        "id": "en_CK",
        "code": "en",
        "region": "CK",
        "regionName": "Cook Islands",
        "variant": null
    },
    {
        "isoName": "English",
        "nativeName": "English",
        "id": "en_CM",
        "code": "en",
        "region": "CM",
        "regionName": "Cameroon",
        "variant": null
    },
    {
        "isoName": "English",
        "nativeName": "English",
        "id": "en_CX",
        "code": "en",
        "region": "CX",
        "regionName": "Christmas Island",
        "variant": null
    },
    {
        "isoName": "English",
        "nativeName": "English",
        "id": "en_CY",
        "code": "en",
        "region": "CY",
        "regionName": "Cyprus",
        "variant": null
    },
    {
        "isoName": "English",
        "nativeName": "English",
        "id": "en_DE",
        "code": "en",
        "region": "DE",
        "regionName": "Germany",
        "variant": null
    },
    {
        "isoName": "English",
        "nativeName": "English",
        "id": "en_DG",
        "code": "en",
        "region": "DG",
        "regionName": "DG",
        "variant": null
    },
    {
        "isoName": "English",
        "nativeName": "English",
        "id": "en_DK",
        "code": "en",
        "region": "DK",
        "regionName": "Denmark",
        "variant": null
    },
    {
        "isoName": "English",
        "nativeName": "English",
        "id": "en_DM",
        "code": "en",
        "region": "DM",
        "regionName": "Dominica",
        "variant": null
    },
    {
        "isoName": "English",
        "nativeName": "English",
        "id": "en_ER",
        "code": "en",
        "region": "ER",
        "regionName": "Eritrea",
        "variant": null
    },
    {
        "isoName": "English",
        "nativeName": "English",
        "id": "en_FI",
        "code": "en",
        "region": "FI",
        "regionName": "Finland",
        "variant": null
    },
    {
        "isoName": "English",
        "nativeName": "English",
        "id": "en_FJ",
        "code": "en",
        "region": "FJ",
        "regionName": "Fiji",
        "variant": null
    },
    {
        "isoName": "English",
        "nativeName": "English",
        "id": "en_FK",
        "code": "en",
        "region": "FK",
        "regionName": "Falkland Islands",
        "variant": null
    },
    {
        "isoName": "English",
        "nativeName": "English",
        "id": "en_FM",
        "code": "en",
        "region": "FM",
        "regionName": "Micronesia",
        "variant": null
    },
    {
        "isoName": "English",
        "nativeName": "English",
        "id": "en_GB",
        "code": "en",
        "region": "GB",
        "regionName": "United Kingdom of Great Britain and Northern Ireland",
        "variant": null
    },
    {
        "isoName": "English",
        "nativeName": "English",
        "id": "en_GD",
        "code": "en",
        "region": "GD",
        "regionName": "Grenada",
        "variant": null
    },
    {
        "isoName": "English",
        "nativeName": "English",
        "id": "en_GG",
        "code": "en",
        "region": "GG",
        "regionName": "Guernsey",
        "variant": null
    },
    {
        "isoName": "English",
        "nativeName": "English",
        "id": "en_GH",
        "code": "en",
        "region": "GH",
        "regionName": "Ghana",
        "variant": null
    },
    {
        "isoName": "English",
        "nativeName": "English",
        "id": "en_GI",
        "code": "en",
        "region": "GI",
        "regionName": "Gibraltar",
        "variant": null
    },
    {
        "isoName": "English",
        "nativeName": "English",
        "id": "en_GM",
        "code": "en",
        "region": "GM",
        "regionName": "Gambia",
        "variant": null
    },
    {
        "isoName": "English",
        "nativeName": "English",
        "id": "en_GU",
        "code": "en",
        "region": "GU",
        "regionName": "Guam",
        "variant": null
    },
    {
        "isoName": "English",
        "nativeName": "English",
        "id": "en_GY",
        "code": "en",
        "region": "GY",
        "regionName": "Guyana",
        "variant": null
    },
    {
        "isoName": "English",
        "nativeName": "English",
        "id": "en_HK",
        "code": "en",
        "region": "HK",
        "regionName": "Hong Kong",
        "variant": null
    },
    {
        "isoName": "English",
        "nativeName": "English",
        "id": "en_IE",
        "code": "en",
        "region": "IE",
        "regionName": "Ireland",
        "variant": null
    },
    {
        "isoName": "English",
        "nativeName": "English",
        "id": "en_IL",
        "code": "en",
        "region": "IL",
        "regionName": "Israel",
        "variant": null
    },
    {
        "isoName": "English",
        "nativeName": "English",
        "id": "en_IM",
        "code": "en",
        "region": "IM",
        "regionName": "Isle of Man",
        "variant": null
    },
    {
        "isoName": "English",
        "nativeName": "English",
        "id": "en_IN",
        "code": "en",
        "region": "IN",
        "regionName": "India",
        "variant": null
    },
    {
        "isoName": "English",
        "nativeName": "English",
        "id": "en_IO",
        "code": "en",
        "region": "IO",
        "regionName": "British Indian Ocean Territory",
        "variant": null
    },
    {
        "isoName": "English",
        "nativeName": "English",
        "id": "en_ISO",
        "code": "en",
        "region": "ISO",
        "regionName": "ISO",
        "variant": null
    },
    {
        "isoName": "English",
        "nativeName": "English",
        "id": "en_JE",
        "code": "en",
        "region": "JE",
        "regionName": "Jersey",
        "variant": null
    },
    {
        "isoName": "English",
        "nativeName": "English",
        "id": "en_JM",
        "code": "en",
        "region": "JM",
        "regionName": "Jamaica",
        "variant": null
    },
    {
        "isoName": "English",
        "nativeName": "English",
        "id": "en_KE",
        "code": "en",
        "region": "KE",
        "regionName": "Kenya",
        "variant": null
    },
    {
        "isoName": "English",
        "nativeName": "English",
        "id": "en_KI",
        "code": "en",
        "region": "KI",
        "regionName": "Kiribati",
        "variant": null
    },
    {
        "isoName": "English",
        "nativeName": "English",
        "id": "en_KN",
        "code": "en",
        "region": "KN",
        "regionName": "Saint Kitts and Nevis",
        "variant": null
    },
    {
        "isoName": "English",
        "nativeName": "English",
        "id": "en_KY",
        "code": "en",
        "region": "KY",
        "regionName": "Cayman Islands",
        "variant": null
    },
    {
        "isoName": "English",
        "nativeName": "English",
        "id": "en_LC",
        "code": "en",
        "region": "LC",
        "regionName": "Saint Lucia",
        "variant": null
    },
    {
        "isoName": "English",
        "nativeName": "English",
        "id": "en_LR",
        "code": "en",
        "region": "LR",
        "regionName": "Liberia",
        "variant": null
    },
    {
        "isoName": "English",
        "nativeName": "English",
        "id": "en_LS",
        "code": "en",
        "region": "LS",
        "regionName": "Lesotho",
        "variant": null
    },
    {
        "isoName": "English",
        "nativeName": "English",
        "id": "en_MG",
        "code": "en",
        "region": "MG",
        "regionName": "Madagascar",
        "variant": null
    },
    {
        "isoName": "English",
        "nativeName": "English",
        "id": "en_MH",
        "code": "en",
        "region": "MH",
        "regionName": "Marshall Islands",
        "variant": null
    },
    {
        "isoName": "English",
        "nativeName": "English",
        "id": "en_MO",
        "code": "en",
        "region": "MO",
        "regionName": "Macao",
        "variant": null
    },
    {
        "isoName": "English",
        "nativeName": "English",
        "id": "en_MP",
        "code": "en",
        "region": "MP",
        "regionName": "Northern Mariana Islands",
        "variant": null
    },
    {
        "isoName": "English",
        "nativeName": "English",
        "id": "en_MS",
        "code": "en",
        "region": "MS",
        "regionName": "Montserrat",
        "variant": null
    },
    {
        "isoName": "English",
        "nativeName": "English",
        "id": "en_MT",
        "code": "en",
        "region": "MT",
        "regionName": "Malta",
        "variant": null
    },
    {
        "isoName": "English",
        "nativeName": "English",
        "id": "en_MU",
        "code": "en",
        "region": "MU",
        "regionName": "Mauritius",
        "variant": null
    },
    {
        "isoName": "English",
        "nativeName": "English",
        "id": "en_MW",
        "code": "en",
        "region": "MW",
        "regionName": "Malawi",
        "variant": null
    },
    {
        "isoName": "English",
        "nativeName": "English",
        "id": "en_MY",
        "code": "en",
        "region": "MY",
        "regionName": "Malaysia",
        "variant": null
    },
    {
        "isoName": "English",
        "nativeName": "English",
        "id": "en_NA",
        "code": "en",
        "region": "NA",
        "regionName": "Namibia",
        "variant": null
    },
    {
        "isoName": "English",
        "nativeName": "English",
        "id": "en_NF",
        "code": "en",
        "region": "NF",
        "regionName": "Norfolk Island",
        "variant": null
    },
    {
        "isoName": "English",
        "nativeName": "English",
        "id": "en_NG",
        "code": "en",
        "region": "NG",
        "regionName": "Nigeria",
        "variant": null
    },
    {
        "isoName": "English",
        "nativeName": "English",
        "id": "en_NL",
        "code": "en",
        "region": "NL",
        "regionName": "Netherlands",
        "variant": null
    },
    {
        "isoName": "English",
        "nativeName": "English",
        "id": "en_NR",
        "code": "en",
        "region": "NR",
        "regionName": "Nauru",
        "variant": null
    },
    {
        "isoName": "English",
        "nativeName": "English",
        "id": "en_NU",
        "code": "en",
        "region": "NU",
        "regionName": "Niue",
        "variant": null
    },
    {
        "isoName": "English",
        "nativeName": "English",
        "id": "en_NZ",
        "code": "en",
        "region": "NZ",
        "regionName": "New Zealand",
        "variant": null
    },
    {
        "isoName": "English",
        "nativeName": "English",
        "id": "en_PG",
        "code": "en",
        "region": "PG",
        "regionName": "Papua New Guinea",
        "variant": null
    },
    {
        "isoName": "English",
        "nativeName": "English",
        "id": "en_PH",
        "code": "en",
        "region": "PH",
        "regionName": "Philippines",
        "variant": null
    },
    {
        "isoName": "English",
        "nativeName": "English",
        "id": "en_PK",
        "code": "en",
        "region": "PK",
        "regionName": "Pakistan",
        "variant": null
    },
    {
        "isoName": "English",
        "nativeName": "English",
        "id": "en_PN",
        "code": "en",
        "region": "PN",
        "regionName": "Pitcairn",
        "variant": null
    },
    {
        "isoName": "English",
        "nativeName": "English",
        "id": "en_PR",
        "code": "en",
        "region": "PR",
        "regionName": "Puerto Rico",
        "variant": null
    },
    {
        "isoName": "English",
        "nativeName": "English",
        "id": "en_PW",
        "code": "en",
        "region": "PW",
        "regionName": "Palau",
        "variant": null
    },
    {
        "isoName": "English",
        "nativeName": "English",
        "id": "en_RW",
        "code": "en",
        "region": "RW",
        "regionName": "Rwanda",
        "variant": null
    },
    {
        "isoName": "English",
        "nativeName": "English",
        "id": "en_SB",
        "code": "en",
        "region": "SB",
        "regionName": "Solomon Islands",
        "variant": null
    },
    {
        "isoName": "English",
        "nativeName": "English",
        "id": "en_SC",
        "code": "en",
        "region": "SC",
        "regionName": "Seychelles",
        "variant": null
    },
    {
        "isoName": "English",
        "nativeName": "English",
        "id": "en_SD",
        "code": "en",
        "region": "SD",
        "regionName": "Sudan",
        "variant": null
    },
    {
        "isoName": "English",
        "nativeName": "English",
        "id": "en_SE",
        "code": "en",
        "region": "SE",
        "regionName": "Sweden",
        "variant": null
    },
    {
        "isoName": "English",
        "nativeName": "English",
        "id": "en_SG",
        "code": "en",
        "region": "SG",
        "regionName": "Singapore",
        "variant": null
    },
    {
        "isoName": "English",
        "nativeName": "English",
        "id": "en_SH",
        "code": "en",
        "region": "SH",
        "regionName": "Saint Helena, Ascension and Tristan da Cunha",
        "variant": null
    },
    {
        "isoName": "English",
        "nativeName": "English",
        "id": "en_SI",
        "code": "en",
        "region": "SI",
        "regionName": "Slovenia",
        "variant": null
    },
    {
        "isoName": "English",
        "nativeName": "English",
        "id": "en_SL",
        "code": "en",
        "region": "SL",
        "regionName": "Sierra Leone",
        "variant": null
    },
    {
        "isoName": "English",
        "nativeName": "English",
        "id": "en_SS",
        "code": "en",
        "region": "SS",
        "regionName": "South Sudan",
        "variant": null
    },
    {
        "isoName": "English",
        "nativeName": "English",
        "id": "en_SX",
        "code": "en",
        "region": "SX",
        "regionName": "Sint Maarten (Dutch part)",
        "variant": null
    },
    {
        "isoName": "English",
        "nativeName": "English",
        "id": "en_SZ",
        "code": "en",
        "region": "SZ",
        "regionName": "Eswatini",
        "variant": null
    },
    {
        "isoName": "English",
        "nativeName": "English",
        "id": "en_TC",
        "code": "en",
        "region": "TC",
        "regionName": "Turks and Caicos Islands",
        "variant": null
    },
    {
        "isoName": "English",
        "nativeName": "English",
        "id": "en_TK",
        "code": "en",
        "region": "TK",
        "regionName": "Tokelau",
        "variant": null
    },
    {
        "isoName": "English",
        "nativeName": "English",
        "id": "en_TO",
        "code": "en",
        "region": "TO",
        "regionName": "Tonga",
        "variant": null
    },
    {
        "isoName": "English",
        "nativeName": "English",
        "id": "en_TT",
        "code": "en",
        "region": "TT",
        "regionName": "Trinidad and Tobago",
        "variant": null
    },
    {
        "isoName": "English",
        "nativeName": "English",
        "id": "en_TV",
        "code": "en",
        "region": "TV",
        "regionName": "Tuvalu",
        "variant": null
    },
    {
        "isoName": "English",
        "nativeName": "English",
        "id": "en_TZ",
        "code": "en",
        "region": "TZ",
        "regionName": "Tanzania",
        "variant": null
    },
    {
        "isoName": "English",
        "nativeName": "English",
        "id": "en_UG",
        "code": "en",
        "region": "UG",
        "regionName": "Uganda",
        "variant": null
    },
    {
        "isoName": "English",
        "nativeName": "English",
        "id": "en_UM",
        "code": "en",
        "region": "UM",
        "regionName": "United States Minor Outlying Islands",
        "variant": null
    },
    {
        "isoName": "English",
        "nativeName": "English",
        "id": "en_US",
        "code": "en",
        "region": "US",
        "regionName": "United States of America",
        "variant": null
    },
    {
        "isoName": "English",
        "nativeName": "English",
        "id": "en_US_Posix",
        "code": "en",
        "region": "US",
        "regionName": "United States of America",
        "variant": null
    },
    {
        "isoName": "English",
        "nativeName": "English",
        "id": "en_VC",
        "code": "en",
        "region": "VC",
        "regionName": "Saint Vincent and the Grenadines",
        "variant": null
    },
    {
        "isoName": "English",
        "nativeName": "English",
        "id": "en_VG",
        "code": "en",
        "region": "VG",
        "regionName": "Virgin Islands (British)",
        "variant": null
    },
    {
        "isoName": "English",
        "nativeName": "English",
        "id": "en_VI",
        "code": "en",
        "region": "VI",
        "regionName": "Virgin Islands (U.S.)",
        "variant": null
    },
    {
        "isoName": "English",
        "nativeName": "English",
        "id": "en_VU",
        "code": "en",
        "region": "VU",
        "regionName": "Vanuatu",
        "variant": null
    },
    {
        "isoName": "English",
        "nativeName": "English",
        "id": "en_WS",
        "code": "en",
        "region": "WS",
        "regionName": "Samoa",
        "variant": null
    },
    {
        "isoName": "English",
        "nativeName": "English",
        "id": "en_ZA",
        "code": "en",
        "region": "ZA",
        "regionName": "South Africa",
        "variant": null
    },
    {
        "isoName": "English",
        "nativeName": "English",
        "id": "en_ZM",
        "code": "en",
        "region": "ZM",
        "regionName": "Zambia",
        "variant": null
    },
    {
        "isoName": "English",
        "nativeName": "English",
        "id": "en_ZW",
        "code": "en",
        "region": "ZW",
        "regionName": "Zimbabwe",
        "variant": null
    },
    {
        "isoName": "Esperanto",
        "nativeName": "Esperanto",
        "id": "eo",
        "code": "eo",
        "region": null,
        "regionName": null,
        "variant": null
    },
    {
        "isoName": "Spanish, Castilian",
        "nativeName": "Espa\u00f1ol",
        "id": "es",
        "code": "es",
        "region": null,
        "regionName": null,
        "variant": null
    },
    {
        "isoName": "Spanish, Castilian",
        "nativeName": "Espa\u00f1ol",
        "id": "es_419",
        "code": "es",
        "region": null,
        "regionName": null,
        "variant": "419"
    },
    {
        "isoName": "Spanish, Castilian",
        "nativeName": "Espa\u00f1ol",
        "id": "es_AR",
        "code": "es",
        "region": "AR",
        "regionName": "Argentina",
        "variant": null
    },
    {
        "isoName": "Spanish, Castilian",
        "nativeName": "Espa\u00f1ol",
        "id": "es_BO",
        "code": "es",
        "region": "BO",
        "regionName": "Bolivia",
        "variant": null
    },
    {
        "isoName": "Spanish, Castilian",
        "nativeName": "Espa\u00f1ol",
        "id": "es_BR",
        "code": "es",
        "region": "BR",
        "regionName": "Brazil",
        "variant": null
    },
    {
        "isoName": "Spanish, Castilian",
        "nativeName": "Espa\u00f1ol",
        "id": "es_BZ",
        "code": "es",
        "region": "BZ",
        "regionName": "Belize",
        "variant": null
    },
    {
        "isoName": "Spanish, Castilian",
        "nativeName": "Espa\u00f1ol",
        "id": "es_CL",
        "code": "es",
        "region": "CL",
        "regionName": "Chile",
        "variant": null
    },
    {
        "isoName": "Spanish, Castilian",
        "nativeName": "Espa\u00f1ol",
        "id": "es_CO",
        "code": "es",
        "region": "CO",
        "regionName": "Colombia",
        "variant": null
    },
    {
        "isoName": "Spanish, Castilian",
        "nativeName": "Espa\u00f1ol",
        "id": "es_CR",
        "code": "es",
        "region": "CR",
        "regionName": "Costa Rica",
        "variant": null
    },
    {
        "isoName": "Spanish, Castilian",
        "nativeName": "Espa\u00f1ol",
        "id": "es_CU",
        "code": "es",
        "region": "CU",
        "regionName": "Cuba",
        "variant": null
    },
    {
        "isoName": "Spanish, Castilian",
        "nativeName": "Espa\u00f1ol",
        "id": "es_DO",
        "code": "es",
        "region": "DO",
        "regionName": "Dominican Republic",
        "variant": null
    },
    {
        "isoName": "Spanish, Castilian",
        "nativeName": "Espa\u00f1ol",
        "id": "es_EA",
        "code": "es",
        "region": "EA",
        "regionName": "EA",
        "variant": null
    },
    {
        "isoName": "Spanish, Castilian",
        "nativeName": "Espa\u00f1ol",
        "id": "es_EC",
        "code": "es",
        "region": "EC",
        "regionName": "Ecuador",
        "variant": null
    },
    {
        "isoName": "Spanish, Castilian",
        "nativeName": "Espa\u00f1ol",
        "id": "es_ES",
        "code": "es",
        "region": "ES",
        "regionName": "Spain",
        "variant": null
    },
    {
        "isoName": "Spanish, Castilian",
        "nativeName": "Espa\u00f1ol",
        "id": "es_GQ",
        "code": "es",
        "region": "GQ",
        "regionName": "Equatorial Guinea",
        "variant": null
    },
    {
        "isoName": "Spanish, Castilian",
        "nativeName": "Espa\u00f1ol",
        "id": "es_GT",
        "code": "es",
        "region": "GT",
        "regionName": "Guatemala",
        "variant": null
    },
    {
        "isoName": "Spanish, Castilian",
        "nativeName": "Espa\u00f1ol",
        "id": "es_HN",
        "code": "es",
        "region": "HN",
        "regionName": "Honduras",
        "variant": null
    },
    {
        "isoName": "Spanish, Castilian",
        "nativeName": "Espa\u00f1ol",
        "id": "es_IC",
        "code": "es",
        "region": "IC",
        "regionName": "IC",
        "variant": null
    },
    {
        "isoName": "Spanish, Castilian",
        "nativeName": "Espa\u00f1ol",
        "id": "es_MX",
        "code": "es",
        "region": "MX",
        "regionName": "Mexico",
        "variant": null
    },
    {
        "isoName": "Spanish, Castilian",
        "nativeName": "Espa\u00f1ol",
        "id": "es_NI",
        "code": "es",
        "region": "NI",
        "regionName": "Nicaragua",
        "variant": null
    },
    {
        "isoName": "Spanish, Castilian",
        "nativeName": "Espa\u00f1ol",
        "id": "es_PA",
        "code": "es",
        "region": "PA",
        "regionName": "Panama",
        "variant": null
    },
    {
        "isoName": "Spanish, Castilian",
        "nativeName": "Espa\u00f1ol",
        "id": "es_PE",
        "code": "es",
        "region": "PE",
        "regionName": "Peru",
        "variant": null
    },
    {
        "isoName": "Spanish, Castilian",
        "nativeName": "Espa\u00f1ol",
        "id": "es_PH",
        "code": "es",
        "region": "PH",
        "regionName": "Philippines",
        "variant": null
    },
    {
        "isoName": "Spanish, Castilian",
        "nativeName": "Espa\u00f1ol",
        "id": "es_PR",
        "code": "es",
        "region": "PR",
        "regionName": "Puerto Rico",
        "variant": null
    },
    {
        "isoName": "Spanish, Castilian",
        "nativeName": "Espa\u00f1ol",
        "id": "es_PY",
        "code": "es",
        "region": "PY",
        "regionName": "Paraguay",
        "variant": null
    },
    {
        "isoName": "Spanish, Castilian",
        "nativeName": "Espa\u00f1ol",
        "id": "es_SV",
        "code": "es",
        "region": "SV",
        "regionName": "El Salvador",
        "variant": null
    },
    {
        "isoName": "Spanish, Castilian",
        "nativeName": "Espa\u00f1ol",
        "id": "es_US",
        "code": "es",
        "region": "US",
        "regionName": "United States of America",
        "variant": null
    },
    {
        "isoName": "Spanish, Castilian",
        "nativeName": "Espa\u00f1ol",
        "id": "es_UY",
        "code": "es",
        "region": "UY",
        "regionName": "Uruguay",
        "variant": null
    },
    {
        "isoName": "Spanish, Castilian",
        "nativeName": "Espa\u00f1ol",
        "id": "es_VE",
        "code": "es",
        "region": "VE",
        "regionName": "Venezuela",
        "variant": null
    },
    {
        "isoName": "Estonian",
        "nativeName": "eesti, eesti keel",
        "id": "et",
        "code": "et",
        "region": null,
        "regionName": null,
        "variant": null
    },
    {
        "isoName": "Estonian",
        "nativeName": "eesti, eesti keel",
        "id": "et_EE",
        "code": "et",
        "region": "EE",
        "regionName": "Estonia",
        "variant": null
    },
    {
        "isoName": "Basque",
        "nativeName": "euskara, euskera",
        "id": "eu",
        "code": "eu",
        "region": null,
        "regionName": null,
        "variant": null
    },
    {
        "isoName": "Basque",
        "nativeName": "euskara, euskera",
        "id": "eu_ES",
        "code": "eu",
        "region": "ES",
        "regionName": "Spain",
        "variant": null
    },
    {
        "isoName": "Ewondo",
        "nativeName": "Ewondo",
        "id": "ewo",
        "code": "ewo",
        "region": null,
        "regionName": null,
        "variant": null
    },
    {
        "isoName": "Persian",
        "nativeName": "\u0641\u0627\u0631\u0633\u06cc",
        "id": "fa",
        "code": "fa",
        "region": null,
        "regionName": null,
        "variant": null
    },
    {
        "isoName": "Persian",
        "nativeName": "\u0641\u0627\u0631\u0633\u06cc",
        "id": "fa_AF",
        "code": "fa",
        "region": "AF",
        "regionName": "Afghanistan",
        "variant": null
    },
    {
        "isoName": "Persian",
        "nativeName": "\u0641\u0627\u0631\u0633\u06cc",
        "id": "fa_IR",
        "code": "fa",
        "region": "IR",
        "regionName": "Iran",
        "variant": null
    },
    {
        "isoName": "Fulah",
        "nativeName": "Fulfulde, Pulaar, Pular",
        "id": "ff",
        "code": "ff",
        "region": null,
        "regionName": null,
        "variant": null
    },
    {
        "isoName": "Fulah",
        "nativeName": "Fulfulde, Pulaar, Pular",
        "id": "ff_CM",
        "code": "ff",
        "region": "CM",
        "regionName": "Cameroon",
        "variant": null
    },
    {
        "isoName": "Fulah",
        "nativeName": "Fulfulde, Pulaar, Pular",
        "id": "ff_GN",
        "code": "ff",
        "region": "GN",
        "regionName": "Guinea",
        "variant": null
    },
    {
        "isoName": "Fulah",
        "nativeName": "Fulfulde, Pulaar, Pular",
        "id": "ff_MR",
        "code": "ff",
        "region": "MR",
        "regionName": "Mauritania",
        "variant": null
    },
    {
        "isoName": "Fulah",
        "nativeName": "Fulfulde, Pulaar, Pular",
        "id": "ff_SN",
        "code": "ff",
        "region": "SN",
        "regionName": "Senegal",
        "variant": null
    },
    {
        "isoName": "Finnish",
        "nativeName": "suomi, suomen kieli",
        "id": "fi",
        "code": "fi",
        "region": null,
        "regionName": null,
        "variant": null
    },
    {
        "isoName": "Finnish",
        "nativeName": "suomi, suomen kieli",
        "id": "fi_FI",
        "code": "fi",
        "region": "FI",
        "regionName": "Finland",
        "variant": null
    },
    {
        "isoName": "Filipino",
        "nativeName": "Filipino",
        "id": "fil",
        "code": "fil",
        "region": null,
        "regionName": null,
        "variant": null
    },
    {
        "isoName": "Filipino",
        "nativeName": "Filipino",
        "id": "fil_PH",
        "code": "fil",
        "region": "PH",
        "regionName": "Philippines",
        "variant": null
    },
    {
        "isoName": "Faroese",
        "nativeName": "f\u00f8royskt",
        "id": "fo",
        "code": "fo",
        "region": null,
        "regionName": null,
        "variant": null
    },
    {
        "isoName": "Faroese",
        "nativeName": "f\u00f8royskt",
        "id": "fo_DK",
        "code": "fo",
        "region": "DK",
        "regionName": "Denmark",
        "variant": null
    },
    {
        "isoName": "Faroese",
        "nativeName": "f\u00f8royskt",
        "id": "fo_FO",
        "code": "fo",
        "region": "FO",
        "regionName": "Faroe Islands",
        "variant": null
    },
    {
        "isoName": "French",
        "nativeName": "fran\u00e7ais",
        "id": "fr",
        "code": "fr",
        "region": null,
        "regionName": null,
        "variant": null
    },
    {
        "isoName": "French",
        "nativeName": "fran\u00e7ais",
        "id": "fr_BE",
        "code": "fr",
        "region": "BE",
        "regionName": "Belgium",
        "variant": null
    },
    {
        "isoName": "French",
        "nativeName": "fran\u00e7ais",
        "id": "fr_BF",
        "code": "fr",
        "region": "BF",
        "regionName": "Burkina Faso",
        "variant": null
    },
    {
        "isoName": "French",
        "nativeName": "fran\u00e7ais",
        "id": "fr_BI",
        "code": "fr",
        "region": "BI",
        "regionName": "Burundi",
        "variant": null
    },
    {
        "isoName": "French",
        "nativeName": "fran\u00e7ais",
        "id": "fr_BJ",
        "code": "fr",
        "region": "BJ",
        "regionName": "Benin",
        "variant": null
    },
    {
        "isoName": "French",
        "nativeName": "fran\u00e7ais",
        "id": "fr_BL",
        "code": "fr",
        "region": "BL",
        "regionName": "Saint Barth\u00e9lemy",
        "variant": null
    },
    {
        "isoName": "French",
        "nativeName": "fran\u00e7ais",
        "id": "fr_CA",
        "code": "fr",
        "region": "CA",
        "regionName": "Canada",
        "variant": null
    },
    {
        "isoName": "French",
        "nativeName": "fran\u00e7ais",
        "id": "fr_CD",
        "code": "fr",
        "region": "CD",
        "regionName": "Congo, Democratic Republic of the",
        "variant": null
    },
    {
        "isoName": "French",
        "nativeName": "fran\u00e7ais",
        "id": "fr_CF",
        "code": "fr",
        "region": "CF",
        "regionName": "Central African Republic",
        "variant": null
    },
    {
        "isoName": "French",
        "nativeName": "fran\u00e7ais",
        "id": "fr_CG",
        "code": "fr",
        "region": "CG",
        "regionName": "Congo",
        "variant": null
    },
    {
        "isoName": "French",
        "nativeName": "fran\u00e7ais",
        "id": "fr_CH",
        "code": "fr",
        "region": "CH",
        "regionName": "Switzerland",
        "variant": null
    },
    {
        "isoName": "French",
        "nativeName": "fran\u00e7ais",
        "id": "fr_CI",
        "code": "fr",
        "region": "CI",
        "regionName": "C\u00f4te d'Ivoire",
        "variant": null
    },
    {
        "isoName": "French",
        "nativeName": "fran\u00e7ais",
        "id": "fr_CM",
        "code": "fr",
        "region": "CM",
        "regionName": "Cameroon",
        "variant": null
    },
    {
        "isoName": "French",
        "nativeName": "fran\u00e7ais",
        "id": "fr_DJ",
        "code": "fr",
        "region": "DJ",
        "regionName": "Djibouti",
        "variant": null
    },
    {
        "isoName": "French",
        "nativeName": "fran\u00e7ais",
        "id": "fr_DZ",
        "code": "fr",
        "region": "DZ",
        "regionName": "Algeria",
        "variant": null
    },
    {
        "isoName": "French",
        "nativeName": "fran\u00e7ais",
        "id": "fr_FR",
        "code": "fr",
        "region": "FR",
        "regionName": "France",
        "variant": null
    },
    {
        "isoName": "French",
        "nativeName": "fran\u00e7ais",
        "id": "fr_GA",
        "code": "fr",
        "region": "GA",
        "regionName": "Gabon",
        "variant": null
    },
    {
        "isoName": "French",
        "nativeName": "fran\u00e7ais",
        "id": "fr_GF",
        "code": "fr",
        "region": "GF",
        "regionName": "French Guiana",
        "variant": null
    },
    {
        "isoName": "French",
        "nativeName": "fran\u00e7ais",
        "id": "fr_GN",
        "code": "fr",
        "region": "GN",
        "regionName": "Guinea",
        "variant": null
    },
    {
        "isoName": "French",
        "nativeName": "fran\u00e7ais",
        "id": "fr_GP",
        "code": "fr",
        "region": "GP",
        "regionName": "Guadeloupe",
        "variant": null
    },
    {
        "isoName": "French",
        "nativeName": "fran\u00e7ais",
        "id": "fr_GQ",
        "code": "fr",
        "region": "GQ",
        "regionName": "Equatorial Guinea",
        "variant": null
    },
    {
        "isoName": "French",
        "nativeName": "fran\u00e7ais",
        "id": "fr_HT",
        "code": "fr",
        "region": "HT",
        "regionName": "Haiti",
        "variant": null
    },
    {
        "isoName": "French",
        "nativeName": "fran\u00e7ais",
        "id": "fr_KM",
        "code": "fr",
        "region": "KM",
        "regionName": "Comoros",
        "variant": null
    },
    {
        "isoName": "French",
        "nativeName": "fran\u00e7ais",
        "id": "fr_LU",
        "code": "fr",
        "region": "LU",
        "regionName": "Luxembourg",
        "variant": null
    },
    {
        "isoName": "French",
        "nativeName": "fran\u00e7ais",
        "id": "fr_MA",
        "code": "fr",
        "region": "MA",
        "regionName": "Morocco",
        "variant": null
    },
    {
        "isoName": "French",
        "nativeName": "fran\u00e7ais",
        "id": "fr_MC",
        "code": "fr",
        "region": "MC",
        "regionName": "Monaco",
        "variant": null
    },
    {
        "isoName": "French",
        "nativeName": "fran\u00e7ais",
        "id": "fr_MF",
        "code": "fr",
        "region": "MF",
        "regionName": "Saint Martin (French part)",
        "variant": null
    },
    {
        "isoName": "French",
        "nativeName": "fran\u00e7ais",
        "id": "fr_MG",
        "code": "fr",
        "region": "MG",
        "regionName": "Madagascar",
        "variant": null
    },
    {
        "isoName": "French",
        "nativeName": "fran\u00e7ais",
        "id": "fr_ML",
        "code": "fr",
        "region": "ML",
        "regionName": "Mali",
        "variant": null
    },
    {
        "isoName": "French",
        "nativeName": "fran\u00e7ais",
        "id": "fr_MQ",
        "code": "fr",
        "region": "MQ",
        "regionName": "Martinique",
        "variant": null
    },
    {
        "isoName": "French",
        "nativeName": "fran\u00e7ais",
        "id": "fr_MR",
        "code": "fr",
        "region": "MR",
        "regionName": "Mauritania",
        "variant": null
    },
    {
        "isoName": "French",
        "nativeName": "fran\u00e7ais",
        "id": "fr_MU",
        "code": "fr",
        "region": "MU",
        "regionName": "Mauritius",
        "variant": null
    },
    {
        "isoName": "French",
        "nativeName": "fran\u00e7ais",
        "id": "fr_NC",
        "code": "fr",
        "region": "NC",
        "regionName": "New Caledonia",
        "variant": null
    },
    {
        "isoName": "French",
        "nativeName": "fran\u00e7ais",
        "id": "fr_NE",
        "code": "fr",
        "region": "NE",
        "regionName": "Niger",
        "variant": null
    },
    {
        "isoName": "French",
        "nativeName": "fran\u00e7ais",
        "id": "fr_PF",
        "code": "fr",
        "region": "PF",
        "regionName": "French Polynesia",
        "variant": null
    },
    {
        "isoName": "French",
        "nativeName": "fran\u00e7ais",
        "id": "fr_PM",
        "code": "fr",
        "region": "PM",
        "regionName": "Saint Pierre and Miquelon",
        "variant": null
    },
    {
        "isoName": "French",
        "nativeName": "fran\u00e7ais",
        "id": "fr_RE",
        "code": "fr",
        "region": "RE",
        "regionName": "R\u00e9union",
        "variant": null
    },
    {
        "isoName": "French",
        "nativeName": "fran\u00e7ais",
        "id": "fr_RW",
        "code": "fr",
        "region": "RW",
        "regionName": "Rwanda",
        "variant": null
    },
    {
        "isoName": "French",
        "nativeName": "fran\u00e7ais",
        "id": "fr_SC",
        "code": "fr",
        "region": "SC",
        "regionName": "Seychelles",
        "variant": null
    },
    {
        "isoName": "French",
        "nativeName": "fran\u00e7ais",
        "id": "fr_SN",
        "code": "fr",
        "region": "SN",
        "regionName": "Senegal",
        "variant": null
    },
    {
        "isoName": "French",
        "nativeName": "fran\u00e7ais",
        "id": "fr_SY",
        "code": "fr",
        "region": "SY",
        "regionName": "Syrian Arab Republic",
        "variant": null
    },
    {
        "isoName": "French",
        "nativeName": "fran\u00e7ais",
        "id": "fr_TD",
        "code": "fr",
        "region": "TD",
        "regionName": "Chad",
        "variant": null
    },
    {
        "isoName": "French",
        "nativeName": "fran\u00e7ais",
        "id": "fr_TG",
        "code": "fr",
        "region": "TG",
        "regionName": "Togo",
        "variant": null
    },
    {
        "isoName": "French",
        "nativeName": "fran\u00e7ais",
        "id": "fr_TN",
        "code": "fr",
        "region": "TN",
        "regionName": "Tunisia",
        "variant": null
    },
    {
        "isoName": "French",
        "nativeName": "fran\u00e7ais",
        "id": "fr_VU",
        "code": "fr",
        "region": "VU",
        "regionName": "Vanuatu",
        "variant": null
    },
    {
        "isoName": "French",
        "nativeName": "fran\u00e7ais",
        "id": "fr_WF",
        "code": "fr",
        "region": "WF",
        "regionName": "Wallis and Futuna",
        "variant": null
    },
    {
        "isoName": "French",
        "nativeName": "fran\u00e7ais",
        "id": "fr_YT",
        "code": "fr",
        "region": "YT",
        "regionName": "Mayotte",
        "variant": null
    },
    {
        "isoName": "Friulian",
        "nativeName": "Friulian",
        "id": "fur",
        "code": "fur",
        "region": null,
        "regionName": null,
        "variant": null
    },
    {
        "isoName": "Friulian",
        "nativeName": "Friulian",
        "id": "fur_IT",
        "code": "fur",
        "region": "IT",
        "regionName": "Italy",
        "variant": null
    },
    {
        "isoName": "Western Frisian",
        "nativeName": "Frysk",
        "id": "fy",
        "code": "fy",
        "region": null,
        "regionName": null,
        "variant": null
    },
    {
        "isoName": "Western Frisian",
        "nativeName": "Frysk",
        "id": "fy_DE",
        "code": "fy",
        "region": "DE",
        "regionName": "Germany",
        "variant": null
    },
    {
        "isoName": "Western Frisian",
        "nativeName": "Frysk",
        "id": "fy_NL",
        "code": "fy",
        "region": "NL",
        "regionName": "Netherlands",
        "variant": null
    },
    {
        "isoName": "Irish",
        "nativeName": "Gaeilge",
        "id": "ga",
        "code": "ga",
        "region": null,
        "regionName": null,
        "variant": null
    },
    {
        "isoName": "Irish",
        "nativeName": "Gaeilge",
        "id": "ga_IE",
        "code": "ga",
        "region": "IE",
        "regionName": "Ireland",
        "variant": null
    },
    {
        "isoName": "Gaelic, Scottish Gaelic",
        "nativeName": "G\u00e0idhlig",
        "id": "gd",
        "code": "gd",
        "region": null,
        "regionName": null,
        "variant": null
    },
    {
        "isoName": "Gaelic, Scottish Gaelic",
        "nativeName": "G\u00e0idhlig",
        "id": "gd_GB",
        "code": "gd",
        "region": "GB",
        "regionName": "United Kingdom of Great Britain and Northern Ireland",
        "variant": null
    },
    {
        "isoName": "Geez",
        "nativeName": "Geez",
        "id": "gez",
        "code": "gez",
        "region": null,
        "regionName": null,
        "variant": null
    },
    {
        "isoName": "Geez",
        "nativeName": "Geez",
        "id": "gez_ER",
        "code": "gez",
        "region": "ER",
        "regionName": "Eritrea",
        "variant": null
    },
    {
        "isoName": "Geez",
        "nativeName": "Geez",
        "id": "gez_ET",
        "code": "gez",
        "region": "ET",
        "regionName": "Ethiopia",
        "variant": null
    },
    {
        "isoName": "Galician",
        "nativeName": "Galego",
        "id": "gl",
        "code": "gl",
        "region": null,
        "regionName": null,
        "variant": null
    },
    {
        "isoName": "Galician",
        "nativeName": "Galego",
        "id": "gl_ES",
        "code": "gl",
        "region": "ES",
        "regionName": "Spain",
        "variant": null
    },
    {
        "isoName": "Konkani, Goan",
        "nativeName": "\u0c95\u0cca\u0c82\u0c95\u0ca3\u0cbf",
        "id": "gom",
        "code": "gom",
        "region": null,
        "regionName": null,
        "variant": null
    },
    {
        "isoName": "Konkani, Goan",
        "nativeName": "\u0c95\u0cca\u0c82\u0c95\u0ca3\u0cbf",
        "id": "gom_Latn",
        "code": "gom",
        "region": null,
        "regionName": null,
        "variant": "Latin"
    },
    {
        "isoName": "Swiss German",
        "nativeName": "Swiss German",
        "id": "gsw",
        "code": "gsw",
        "region": null,
        "regionName": null,
        "variant": null
    },
    {
        "isoName": "Swiss German",
        "nativeName": "Swiss German",
        "id": "gsw_CH",
        "code": "gsw",
        "region": "CH",
        "regionName": "Switzerland",
        "variant": null
    },
    {
        "isoName": "Swiss German",
        "nativeName": "Swiss German",
        "id": "gsw_FR",
        "code": "gsw",
        "region": "FR",
        "regionName": "France",
        "variant": null
    },
    {
        "isoName": "Swiss German",
        "nativeName": "Swiss German",
        "id": "gsw_LI",
        "code": "gsw",
        "region": "LI",
        "regionName": "Liechtenstein",
        "variant": null
    },
    {
        "isoName": "Gujarati",
        "nativeName": "\u0a97\u0ac1\u0a9c\u0ab0\u0abe\u0aa4\u0ac0",
        "id": "gu",
        "code": "gu",
        "region": null,
        "regionName": null,
        "variant": null
    },
    {
        "isoName": "Gujarati",
        "nativeName": "\u0a97\u0ac1\u0a9c\u0ab0\u0abe\u0aa4\u0ac0",
        "id": "gu_IN",
        "code": "gu",
        "region": "IN",
        "regionName": "India",
        "variant": null
    },
    {
        "isoName": "Gusii",
        "nativeName": "Gusii",
        "id": "guz",
        "code": "guz",
        "region": null,
        "regionName": null,
        "variant": null
    },
    {
        "isoName": "Manx",
        "nativeName": "Gaelg, Gailck",
        "id": "gv",
        "code": "gv",
        "region": null,
        "regionName": null,
        "variant": null
    },
    {
        "isoName": "Manx",
        "nativeName": "Gaelg, Gailck",
        "id": "gv_GB",
        "code": "gv",
        "region": "GB",
        "regionName": "United Kingdom of Great Britain and Northern Ireland",
        "variant": null
    },
    {
        "isoName": "Hausa",
        "nativeName": "(Hausa) \u0647\u064e\u0648\u064f\u0633\u064e",
        "id": "ha",
        "code": "ha",
        "region": null,
        "regionName": null,
        "variant": null
    },
    {
        "isoName": "Hausa",
        "nativeName": "(Hausa) \u0647\u064e\u0648\u064f\u0633\u064e",
        "id": "ha_GH",
        "code": "ha",
        "region": "GH",
        "regionName": "Ghana",
        "variant": null
    },
    {
        "isoName": "Hausa",
        "nativeName": "(Hausa) \u0647\u064e\u0648\u064f\u0633\u064e",
        "id": "ha_NE",
        "code": "ha",
        "region": "NE",
        "regionName": "Niger",
        "variant": null
    },
    {
        "isoName": "Hausa",
        "nativeName": "(Hausa) \u0647\u064e\u0648\u064f\u0633\u064e",
        "id": "ha_NG",
        "code": "ha",
        "region": "NG",
        "regionName": "Nigeria",
        "variant": null
    },
    {
        "isoName": "Hakka Chinese",
        "nativeName": "Hakka Chinese",
        "id": "hak",
        "code": "hak",
        "region": null,
        "regionName": null,
        "variant": null
    },
    {
        "isoName": "Hakka Chinese",
        "nativeName": "Hakka Chinese",
        "id": "hak_TW",
        "code": "hak",
        "region": "TW",
        "regionName": "Taiwan",
        "variant": null
    },
    {
        "isoName": "Hawaiian",
        "nativeName": "Hawaiian",
        "id": "haw",
        "code": "haw",
        "region": null,
        "regionName": null,
        "variant": null
    },
    {
        "isoName": "Hebrew\u00a0(modern)",
        "nativeName": "\u05e2\u05d1\u05e8\u05d9\u05ea",
        "id": "he",
        "code": "he",
        "region": null,
        "regionName": null,
        "variant": null
    },
    {
        "isoName": "Hebrew\u00a0(modern)",
        "nativeName": "\u05e2\u05d1\u05e8\u05d9\u05ea",
        "id": "he_IL",
        "code": "he",
        "region": "IL",
        "regionName": "Israel",
        "variant": null
    },
    {
        "isoName": "Hindi",
        "nativeName": "\u0939\u093f\u0928\u094d\u0926\u0940, \u0939\u093f\u0902\u0926\u0940",
        "id": "hi",
        "code": "hi",
        "region": null,
        "regionName": null,
        "variant": null
    },
    {
        "isoName": "Hindi",
        "nativeName": "\u0939\u093f\u0928\u094d\u0926\u0940, \u0939\u093f\u0902\u0926\u0940",
        "id": "hi_IN",
        "code": "hi",
        "region": "IN",
        "regionName": "India",
        "variant": null
    },
    {
        "isoName": "Fiji Hindi",
        "nativeName": "Fiji Hindi",
        "id": "hif",
        "code": "hif",
        "region": null,
        "regionName": null,
        "variant": null
    },
    {
        "isoName": "Fiji Hindi",
        "nativeName": "Fiji Hindi",
        "id": "hif_FJ",
        "code": "hif",
        "region": "FJ",
        "regionName": "Fiji",
        "variant": null
    },
    {
        "isoName": "Chhattisgarhi",
        "nativeName": "Chhattisgarhi",
        "id": "hne",
        "code": "hne",
        "region": null,
        "regionName": null,
        "variant": null
    },
    {
        "isoName": "Chhattisgarhi",
        "nativeName": "Chhattisgarhi",
        "id": "hne_IN",
        "code": "hne",
        "region": "IN",
        "regionName": "India",
        "variant": null
    },
    {
        "isoName": "Croatian",
        "nativeName": "hrvatski jezik",
        "id": "hr",
        "code": "hr",
        "region": null,
        "regionName": null,
        "variant": null
    },
    {
        "isoName": "Croatian",
        "nativeName": "hrvatski jezik",
        "id": "hr_BA",
        "code": "hr",
        "region": "BA",
        "regionName": "Bosnia and Herzegovina",
        "variant": null
    },
    {
        "isoName": "Croatian",
        "nativeName": "hrvatski jezik",
        "id": "hr_HR",
        "code": "hr",
        "region": "HR",
        "regionName": "Croatia",
        "variant": null
    },
    {
        "isoName": "Upper Sorbian",
        "nativeName": "Upper Sorbian",
        "id": "hsb",
        "code": "hsb",
        "region": null,
        "regionName": null,
        "variant": null
    },
    {
        "isoName": "Upper Sorbian",
        "nativeName": "Upper Sorbian",
        "id": "hsb_DE",
        "code": "hsb",
        "region": "DE",
        "regionName": "Germany",
        "variant": null
    },
    {
        "isoName": "Haitian, Haitian Creole",
        "nativeName": "Krey\u00f2l ayisyen",
        "id": "ht",
        "code": "ht",
        "region": null,
        "regionName": null,
        "variant": null
    },
    {
        "isoName": "Haitian, Haitian Creole",
        "nativeName": "Krey\u00f2l ayisyen",
        "id": "ht_HT",
        "code": "ht",
        "region": "HT",
        "regionName": "Haiti",
        "variant": null
    },
    {
        "isoName": "Hungarian",
        "nativeName": "magyar",
        "id": "hu",
        "code": "hu",
        "region": null,
        "regionName": null,
        "variant": null
    },
    {
        "isoName": "Hungarian",
        "nativeName": "magyar",
        "id": "hu_HU",
        "code": "hu",
        "region": "HU",
        "regionName": "Hungary",
        "variant": null
    },
    {
        "isoName": "Armenian",
        "nativeName": "\u0540\u0561\u0575\u0565\u0580\u0565\u0576",
        "id": "hy",
        "code": "hy",
        "region": null,
        "regionName": null,
        "variant": null
    },
    {
        "isoName": "Armenian",
        "nativeName": "\u0540\u0561\u0575\u0565\u0580\u0565\u0576",
        "id": "hy_AM",
        "code": "hy",
        "region": "AM",
        "regionName": "Armenia",
        "variant": null
    },
    {
        "isoName": "i18n",
        "nativeName": "i18n",
        "id": "i18n",
        "code": "i18n",
        "region": null,
        "regionName": null,
        "variant": null
    },
    {
        "isoName": "Interlingua",
        "nativeName": "Interlingua",
        "id": "ia",
        "code": "ia",
        "region": null,
        "regionName": null,
        "variant": null
    },
    {
        "isoName": "Interlingua",
        "nativeName": "Interlingua",
        "id": "ia_FR",
        "code": "ia",
        "region": "FR",
        "regionName": "France",
        "variant": null
    },
    {
        "isoName": "Indonesian",
        "nativeName": "Bahasa Indonesia",
        "id": "id",
        "code": "id",
        "region": null,
        "regionName": null,
        "variant": null
    },
    {
        "isoName": "Indonesian",
        "nativeName": "Bahasa Indonesia",
        "id": "id_ID",
        "code": "id",
        "region": "ID",
        "regionName": "Indonesia",
        "variant": null
    },
    {
        "isoName": "Igbo",
        "nativeName": "As\u1ee5s\u1ee5 Igbo",
        "id": "ig",
        "code": "ig",
        "region": null,
        "regionName": null,
        "variant": null
    },
    {
        "isoName": "Igbo",
        "nativeName": "As\u1ee5s\u1ee5 Igbo",
        "id": "ig_NG",
        "code": "ig",
        "region": "NG",
        "regionName": "Nigeria",
        "variant": null
    },
    {
        "isoName": "Sichuan Yi, Nuosu",
        "nativeName": "\ua188\ua320\ua4bf Nuosuhxop",
        "id": "ii",
        "code": "ii",
        "region": null,
        "regionName": null,
        "variant": null
    },
    {
        "isoName": "Inupiaq",
        "nativeName": "I\u00f1upiaq, I\u00f1upiatun",
        "id": "ik",
        "code": "ik",
        "region": null,
        "regionName": null,
        "variant": null
    },
    {
        "isoName": "Inupiaq",
        "nativeName": "I\u00f1upiaq, I\u00f1upiatun",
        "id": "ik_CA",
        "code": "ik",
        "region": "CA",
        "regionName": "Canada",
        "variant": null
    },
    {
        "isoName": "in",
        "nativeName": "in",
        "id": "in",
        "code": "in",
        "region": null,
        "regionName": null,
        "variant": null
    },
    {
        "isoName": "Icelandic",
        "nativeName": "\u00cdslenska",
        "id": "is",
        "code": "is",
        "region": null,
        "regionName": null,
        "variant": null
    },
    {
        "isoName": "Icelandic",
        "nativeName": "\u00cdslenska",
        "id": "is_IS",
        "code": "is",
        "region": "IS",
        "regionName": "Iceland",
        "variant": null
    },
    {
        "isoName": "Italian",
        "nativeName": "Italiano",
        "id": "it",
        "code": "it",
        "region": null,
        "regionName": null,
        "variant": null
    },
    {
        "isoName": "Italian",
        "nativeName": "Italiano",
        "id": "it_CH",
        "code": "it",
        "region": "CH",
        "regionName": "Switzerland",
        "variant": null
    },
    {
        "isoName": "Italian",
        "nativeName": "Italiano",
        "id": "it_IT",
        "code": "it",
        "region": "IT",
        "regionName": "Italy",
        "variant": null
    },
    {
        "isoName": "Italian",
        "nativeName": "Italiano",
        "id": "it_SM",
        "code": "it",
        "region": "SM",
        "regionName": "San Marino",
        "variant": null
    },
    {
        "isoName": "Italian",
        "nativeName": "Italiano",
        "id": "it_VA",
        "code": "it",
        "region": "VA",
        "regionName": "Holy See",
        "variant": null
    },
    {
        "isoName": "Inuktitut",
        "nativeName": "\u1403\u14c4\u1483\u144e\u1450\u1466",
        "id": "iu",
        "code": "iu",
        "region": null,
        "regionName": null,
        "variant": null
    },
    {
        "isoName": "Inuktitut",
        "nativeName": "\u1403\u14c4\u1483\u144e\u1450\u1466",
        "id": "iu_CA",
        "code": "iu",
        "region": "CA",
        "regionName": "Canada",
        "variant": null
    },
    {
        "isoName": "iw",
        "nativeName": "iw",
        "id": "iw",
        "code": "iw",
        "region": null,
        "regionName": null,
        "variant": null
    },
    {
        "isoName": "Japanese",
        "nativeName": "\u65e5\u672c\u8a9e\u00a0(\u306b\u307b\u3093\u3054)",
        "id": "ja",
        "code": "ja",
        "region": null,
        "regionName": null,
        "variant": null
    },
    {
        "isoName": "Japanese",
        "nativeName": "\u65e5\u672c\u8a9e\u00a0(\u306b\u307b\u3093\u3054)",
        "id": "ja_JP",
        "code": "ja",
        "region": "JP",
        "regionName": "Japan",
        "variant": null
    },
    {
        "isoName": "Ngomba",
        "nativeName": "Ngomba",
        "id": "jgo",
        "code": "jgo",
        "region": null,
        "regionName": null,
        "variant": null
    },
    {
        "isoName": "Machame",
        "nativeName": "Machame",
        "id": "jmc",
        "code": "jmc",
        "region": null,
        "regionName": null,
        "variant": null
    },
    {
        "isoName": "Javanese",
        "nativeName": "\ua9a7\ua9b1\ua997\ua9ae, Basa Jawa",
        "id": "jv",
        "code": "jv",
        "region": null,
        "regionName": null,
        "variant": null
    },
    {
        "isoName": "Georgian",
        "nativeName": "\u10e5\u10d0\u10e0\u10d7\u10e3\u10da\u10d8",
        "id": "ka",
        "code": "ka",
        "region": null,
        "regionName": null,
        "variant": null
    },
    {
        "isoName": "Georgian",
        "nativeName": "\u10e5\u10d0\u10e0\u10d7\u10e3\u10da\u10d8",
        "id": "ka_GE",
        "code": "ka",
        "region": "GE",
        "regionName": "Georgia",
        "variant": null
    },
    {
        "isoName": "Kabyle",
        "nativeName": "Kabyle",
        "id": "kab",
        "code": "kab",
        "region": null,
        "regionName": null,
        "variant": null
    },
    {
        "isoName": "Kabyle",
        "nativeName": "Kabyle",
        "id": "kab_DZ",
        "code": "kab",
        "region": "DZ",
        "regionName": "Algeria",
        "variant": null
    },
    {
        "isoName": "Kamba",
        "nativeName": "Kamba",
        "id": "kam",
        "code": "kam",
        "region": null,
        "regionName": null,
        "variant": null
    },
    {
        "isoName": "Makonde",
        "nativeName": "Makonde",
        "id": "kde",
        "code": "kde",
        "region": null,
        "regionName": null,
        "variant": null
    },
    {
        "isoName": "Kabuverdianu",
        "nativeName": "Kabuverdianu",
        "id": "kea",
        "code": "kea",
        "region": null,
        "regionName": null,
        "variant": null
    },
    {
        "isoName": "Koyra Chiini",
        "nativeName": "Koyra Chiini",
        "id": "khq",
        "code": "khq",
        "region": null,
        "regionName": null,
        "variant": null
    },
    {
        "isoName": "Kikuyu, Gikuyu",
        "nativeName": "G\u0129k\u0169y\u0169",
        "id": "ki",
        "code": "ki",
        "region": null,
        "regionName": null,
        "variant": null
    },
    {
        "isoName": "Kazakh",
        "nativeName": "\u049b\u0430\u0437\u0430\u049b \u0442\u0456\u043b\u0456",
        "id": "kk",
        "code": "kk",
        "region": null,
        "regionName": null,
        "variant": null
    },
    {
        "isoName": "Kazakh",
        "nativeName": "\u049b\u0430\u0437\u0430\u049b \u0442\u0456\u043b\u0456",
        "id": "kk_KZ",
        "code": "kk",
        "region": "KZ",
        "regionName": "Kazakhstan",
        "variant": null
    },
    {
        "isoName": "Kako",
        "nativeName": "Kako",
        "id": "kkj",
        "code": "kkj",
        "region": null,
        "regionName": null,
        "variant": null
    },
    {
        "isoName": "Kalaallisut, Greenlandic",
        "nativeName": "kalaallisut, kalaallit oqaasii",
        "id": "kl",
        "code": "kl",
        "region": null,
        "regionName": null,
        "variant": null
    },
    {
        "isoName": "Kalaallisut, Greenlandic",
        "nativeName": "kalaallisut, kalaallit oqaasii",
        "id": "kl_GL",
        "code": "kl",
        "region": "GL",
        "regionName": "Greenland",
        "variant": null
    },
    {
        "isoName": "Kalenjin",
        "nativeName": "Kalenjin",
        "id": "kln",
        "code": "kln",
        "region": null,
        "regionName": null,
        "variant": null
    },
    {
        "isoName": "Central Khmer",
        "nativeName": "\u1781\u17d2\u1798\u17c2\u179a, \u1781\u17c1\u1798\u179a\u1797\u17b6\u179f\u17b6, \u1797\u17b6\u179f\u17b6\u1781\u17d2\u1798\u17c2\u179a",
        "id": "km",
        "code": "km",
        "region": null,
        "regionName": null,
        "variant": null
    },
    {
        "isoName": "Central Khmer",
        "nativeName": "\u1781\u17d2\u1798\u17c2\u179a, \u1781\u17c1\u1798\u179a\u1797\u17b6\u179f\u17b6, \u1797\u17b6\u179f\u17b6\u1781\u17d2\u1798\u17c2\u179a",
        "id": "km_KH",
        "code": "km",
        "region": "KH",
        "regionName": "Cambodia",
        "variant": null
    },
    {
        "isoName": "Kannada",
        "nativeName": "\u0c95\u0ca8\u0ccd\u0ca8\u0ca1",
        "id": "kn",
        "code": "kn",
        "region": null,
        "regionName": null,
        "variant": null
    },
    {
        "isoName": "Kannada",
        "nativeName": "\u0c95\u0ca8\u0ccd\u0ca8\u0ca1",
        "id": "kn_IN",
        "code": "kn",
        "region": "IN",
        "regionName": "India",
        "variant": null
    },
    {
        "isoName": "Korean",
        "nativeName": "\ud55c\uad6d\uc5b4",
        "id": "ko",
        "code": "ko",
        "region": null,
        "regionName": null,
        "variant": null
    },
    {
        "isoName": "Korean",
        "nativeName": "\ud55c\uad6d\uc5b4",
        "id": "ko_KP",
        "code": "ko",
        "region": "KP",
        "regionName": "Korea (Democratic People's Republic of)",
        "variant": null
    },
    {
        "isoName": "Korean",
        "nativeName": "\ud55c\uad6d\uc5b4",
        "id": "ko_KR",
        "code": "ko",
        "region": "KR",
        "regionName": "Korea, Republic of",
        "variant": null
    },
    {
        "isoName": "Konkani",
        "nativeName": "Konkani",
        "id": "kok",
        "code": "kok",
        "region": null,
        "regionName": null,
        "variant": null
    },
    {
        "isoName": "Konkani",
        "nativeName": "Konkani",
        "id": "kok_IN",
        "code": "kok",
        "region": "IN",
        "regionName": "India",
        "variant": null
    },
    {
        "isoName": "Kashmiri",
        "nativeName": "\u0915\u0936\u094d\u092e\u0940\u0930\u0940,\u00a0\u0643\u0634\u0645\u064a\u0631\u064a\u200e",
        "id": "ks",
        "code": "ks",
        "region": null,
        "regionName": null,
        "variant": null
    },
    {
        "isoName": "Kashmiri",
        "nativeName": "\u0915\u0936\u094d\u092e\u0940\u0930\u0940,\u00a0\u0643\u0634\u0645\u064a\u0631\u064a\u200e",
        "id": "ks_IN",
        "code": "ks",
        "region": "IN",
        "regionName": "India",
        "variant": null
    },
    {
        "isoName": "Kashmiri",
        "nativeName": "\u0915\u0936\u094d\u092e\u0940\u0930\u0940,\u00a0\u0643\u0634\u0645\u064a\u0631\u064a\u200e",
        "id": "ks_IN@devanagari",
        "code": "ks",
        "region": null,
        "regionName": null,
        "variant": "IN@devanagari"
    },
    {
        "isoName": "Shambala",
        "nativeName": "Shambala",
        "id": "ksb",
        "code": "ksb",
        "region": null,
        "regionName": null,
        "variant": null
    },
    {
        "isoName": "Bafia",
        "nativeName": "Bafia",
        "id": "ksf",
        "code": "ksf",
        "region": null,
        "regionName": null,
        "variant": null
    },
    {
        "isoName": "Colognian",
        "nativeName": "Colognian",
        "id": "ksh",
        "code": "ksh",
        "region": null,
        "regionName": null,
        "variant": null
    },
    {
        "isoName": "Kurdish",
        "nativeName": "Kurd\u00ee,\u00a0\u06a9\u0648\u0631\u062f\u06cc\u200e",
        "id": "ku",
        "code": "ku",
        "region": null,
        "regionName": null,
        "variant": null
    },
    {
        "isoName": "Kurdish",
        "nativeName": "Kurd\u00ee,\u00a0\u06a9\u0648\u0631\u062f\u06cc\u200e",
        "id": "ku_TR",
        "code": "ku",
        "region": "TR",
        "regionName": "Turkey",
        "variant": null
    },
    {
        "isoName": "Cornish",
        "nativeName": "Kernewek",
        "id": "kw",
        "code": "kw",
        "region": null,
        "regionName": null,
        "variant": null
    },
    {
        "isoName": "Cornish",
        "nativeName": "Kernewek",
        "id": "kw_GB",
        "code": "kw",
        "region": "GB",
        "regionName": "United Kingdom of Great Britain and Northern Ireland",
        "variant": null
    },
    {
        "isoName": "Kirghiz, Kyrgyz",
        "nativeName": "\u041a\u044b\u0440\u0433\u044b\u0437\u0447\u0430, \u041a\u044b\u0440\u0433\u044b\u0437 \u0442\u0438\u043b\u0438",
        "id": "ky",
        "code": "ky",
        "region": null,
        "regionName": null,
        "variant": null
    },
    {
        "isoName": "Kirghiz, Kyrgyz",
        "nativeName": "\u041a\u044b\u0440\u0433\u044b\u0437\u0447\u0430, \u041a\u044b\u0440\u0433\u044b\u0437 \u0442\u0438\u043b\u0438",
        "id": "ky_KG",
        "code": "ky",
        "region": "KG",
        "regionName": "Kyrgyzstan",
        "variant": null
    },
    {
        "isoName": "Langi",
        "nativeName": "Langi",
        "id": "lag",
        "code": "lag",
        "region": null,
        "regionName": null,
        "variant": null
    },
    {
        "isoName": "Luxembourgish, Letzeburgesch",
        "nativeName": "L\u00ebtzebuergesch",
        "id": "lb",
        "code": "lb",
        "region": null,
        "regionName": null,
        "variant": null
    },
    {
        "isoName": "Luxembourgish, Letzeburgesch",
        "nativeName": "L\u00ebtzebuergesch",
        "id": "lb_LU",
        "code": "lb",
        "region": "LU",
        "regionName": "Luxembourg",
        "variant": null
    },
    {
        "isoName": "Ganda",
        "nativeName": "Luganda",
        "id": "lg",
        "code": "lg",
        "region": null,
        "regionName": null,
        "variant": null
    },
    {
        "isoName": "Ganda",
        "nativeName": "Luganda",
        "id": "lg_UG",
        "code": "lg",
        "region": "UG",
        "regionName": "Uganda",
        "variant": null
    },
    {
        "isoName": "Limburgan, Limburger, Limburgish",
        "nativeName": "Limburgs",
        "id": "li",
        "code": "li",
        "region": null,
        "regionName": null,
        "variant": null
    },
    {
        "isoName": "Limburgan, Limburger, Limburgish",
        "nativeName": "Limburgs",
        "id": "li_NL",
        "code": "li",
        "region": "NL",
        "regionName": "Netherlands",
        "variant": null
    },
    {
        "isoName": "Ligurian",
        "nativeName": "Ligurian",
        "id": "lij",
        "code": "lij",
        "region": null,
        "regionName": null,
        "variant": null
    },
    {
        "isoName": "Ligurian",
        "nativeName": "Ligurian",
        "id": "lij_IT",
        "code": "lij",
        "region": "IT",
        "regionName": "Italy",
        "variant": null
    },
    {
        "isoName": "Lakota",
        "nativeName": "Lakota",
        "id": "lkt",
        "code": "lkt",
        "region": null,
        "regionName": null,
        "variant": null
    },
    {
        "isoName": "Lingala",
        "nativeName": "Ling\u00e1la",
        "id": "ln",
        "code": "ln",
        "region": null,
        "regionName": null,
        "variant": null
    },
    {
        "isoName": "Lingala",
        "nativeName": "Ling\u00e1la",
        "id": "ln_AO",
        "code": "ln",
        "region": "AO",
        "regionName": "Angola",
        "variant": null
    },
    {
        "isoName": "Lingala",
        "nativeName": "Ling\u00e1la",
        "id": "ln_CD",
        "code": "ln",
        "region": "CD",
        "regionName": "Congo, Democratic Republic of the",
        "variant": null
    },
    {
        "isoName": "Lingala",
        "nativeName": "Ling\u00e1la",
        "id": "ln_CF",
        "code": "ln",
        "region": "CF",
        "regionName": "Central African Republic",
        "variant": null
    },
    {
        "isoName": "Lingala",
        "nativeName": "Ling\u00e1la",
        "id": "ln_CG",
        "code": "ln",
        "region": "CG",
        "regionName": "Congo",
        "variant": null
    },
    {
        "isoName": "Lao",
        "nativeName": "\u0e9e\u0eb2\u0eaa\u0eb2\u0ea5\u0eb2\u0ea7",
        "id": "lo",
        "code": "lo",
        "region": null,
        "regionName": null,
        "variant": null
    },
    {
        "isoName": "Lao",
        "nativeName": "\u0e9e\u0eb2\u0eaa\u0eb2\u0ea5\u0eb2\u0ea7",
        "id": "lo_LA",
        "code": "lo",
        "region": "LA",
        "regionName": "Lao People's Democratic Republic",
        "variant": null
    },
    {
        "isoName": "Northern Luri",
        "nativeName": "Northern Luri",
        "id": "lrc",
        "code": "lrc",
        "region": null,
        "regionName": null,
        "variant": null
    },
    {
        "isoName": "Northern Luri",
        "nativeName": "Northern Luri",
        "id": "lrc_IQ",
        "code": "lrc",
        "region": "IQ",
        "regionName": "Iraq",
        "variant": null
    },
    {
        "isoName": "Lithuanian",
        "nativeName": "lietuvi\u0173 kalba",
        "id": "lt",
        "code": "lt",
        "region": null,
        "regionName": null,
        "variant": null
    },
    {
        "isoName": "Lithuanian",
        "nativeName": "lietuvi\u0173 kalba",
        "id": "lt_LT",
        "code": "lt",
        "region": "LT",
        "regionName": "Lithuania",
        "variant": null
    },
    {
        "isoName": "Luba-Katanga",
        "nativeName": "Kiluba",
        "id": "lu",
        "code": "lu",
        "region": null,
        "regionName": null,
        "variant": null
    },
    {
        "isoName": "Luo",
        "nativeName": "Luo",
        "id": "luo",
        "code": "luo",
        "region": null,
        "regionName": null,
        "variant": null
    },
    {
        "isoName": "Luyia",
        "nativeName": "Luyia",
        "id": "luy",
        "code": "luy",
        "region": null,
        "regionName": null,
        "variant": null
    },
    {
        "isoName": "Latvian",
        "nativeName": "latvie\u0161u valoda",
        "id": "lv",
        "code": "lv",
        "region": null,
        "regionName": null,
        "variant": null
    },
    {
        "isoName": "Latvian",
        "nativeName": "latvie\u0161u valoda",
        "id": "lv_LV",
        "code": "lv",
        "region": "LV",
        "regionName": "Latvia",
        "variant": null
    },
    {
        "isoName": "Literary Chinese",
        "nativeName": "Literary Chinese",
        "id": "lzh",
        "code": "lzh",
        "region": null,
        "regionName": null,
        "variant": null
    },
    {
        "isoName": "Literary Chinese",
        "nativeName": "Literary Chinese",
        "id": "lzh_TW",
        "code": "lzh",
        "region": "TW",
        "regionName": "Taiwan",
        "variant": null
    },
    {
        "isoName": "Magahi",
        "nativeName": "Magahi",
        "id": "mag",
        "code": "mag",
        "region": null,
        "regionName": null,
        "variant": null
    },
    {
        "isoName": "Magahi",
        "nativeName": "Magahi",
        "id": "mag_IN",
        "code": "mag",
        "region": "IN",
        "regionName": "India",
        "variant": null
    },
    {
        "isoName": "Maithili",
        "nativeName": "Maithili",
        "id": "mai",
        "code": "mai",
        "region": null,
        "regionName": null,
        "variant": null
    },
    {
        "isoName": "Maithili",
        "nativeName": "Maithili",
        "id": "mai_IN",
        "code": "mai",
        "region": "IN",
        "regionName": "India",
        "variant": null
    },
    {
        "isoName": "Masai",
        "nativeName": "Masai",
        "id": "mas",
        "code": "mas",
        "region": null,
        "regionName": null,
        "variant": null
    },
    {
        "isoName": "Masai",
        "nativeName": "Masai",
        "id": "mas_TZ",
        "code": "mas",
        "region": "TZ",
        "regionName": "Tanzania",
        "variant": null
    },
    {
        "isoName": "Meru",
        "nativeName": "Meru",
        "id": "mer",
        "code": "mer",
        "region": null,
        "regionName": null,
        "variant": null
    },
    {
        "isoName": "Morisyen",
        "nativeName": "Morisyen",
        "id": "mfe",
        "code": "mfe",
        "region": null,
        "regionName": null,
        "variant": null
    },
    {
        "isoName": "Morisyen",
        "nativeName": "Morisyen",
        "id": "mfe_MU",
        "code": "mfe",
        "region": "MU",
        "regionName": "Mauritius",
        "variant": null
    },
    {
        "isoName": "Malagasy",
        "nativeName": "fiteny malagasy",
        "id": "mg",
        "code": "mg",
        "region": null,
        "regionName": null,
        "variant": null
    },
    {
        "isoName": "Malagasy",
        "nativeName": "fiteny malagasy",
        "id": "mg_MG",
        "code": "mg",
        "region": "MG",
        "regionName": "Madagascar",
        "variant": null
    },
    {
        "isoName": "Makhuwa-Meetto",
        "nativeName": "Makhuwa-Meetto",
        "id": "mgh",
        "code": "mgh",
        "region": null,
        "regionName": null,
        "variant": null
    },
    {
        "isoName": "Meta\u02bc",
        "nativeName": "Meta\u02bc",
        "id": "mgo",
        "code": "mgo",
        "region": null,
        "regionName": null,
        "variant": null
    },
    {
        "isoName": "Eastern Mari",
        "nativeName": "Eastern Mari",
        "id": "mhr",
        "code": "mhr",
        "region": null,
        "regionName": null,
        "variant": null
    },
    {
        "isoName": "Eastern Mari",
        "nativeName": "Eastern Mari",
        "id": "mhr_RU",
        "code": "mhr",
        "region": "RU",
        "regionName": "Russian Federation",
        "variant": null
    },
    {
        "isoName": "Maori",
        "nativeName": "te reo M\u0101ori",
        "id": "mi",
        "code": "mi",
        "region": null,
        "regionName": null,
        "variant": null
    },
    {
        "isoName": "Maori",
        "nativeName": "te reo M\u0101ori",
        "id": "mi_NZ",
        "code": "mi",
        "region": "NZ",
        "regionName": "New Zealand",
        "variant": null
    },
    {
        "isoName": "M\u00edskito",
        "nativeName": "M\u00edskito",
        "id": "miq",
        "code": "miq",
        "region": null,
        "regionName": null,
        "variant": null
    },
    {
        "isoName": "M\u00edskito",
        "nativeName": "M\u00edskito",
        "id": "miq_NI",
        "code": "miq",
        "region": "NI",
        "regionName": "Nicaragua",
        "variant": null
    },
    {
        "isoName": "Karbi",
        "nativeName": "Karbi",
        "id": "mjw",
        "code": "mjw",
        "region": null,
        "regionName": null,
        "variant": null
    },
    {
        "isoName": "Karbi",
        "nativeName": "Karbi",
        "id": "mjw_IN",
        "code": "mjw",
        "region": "IN",
        "regionName": "India",
        "variant": null
    },
    {
        "isoName": "Macedonian",
        "nativeName": "\u043c\u0430\u043a\u0435\u0434\u043e\u043d\u0441\u043a\u0438 \u0458\u0430\u0437\u0438\u043a",
        "id": "mk",
        "code": "mk",
        "region": null,
        "regionName": null,
        "variant": null
    },
    {
        "isoName": "Macedonian",
        "nativeName": "\u043c\u0430\u043a\u0435\u0434\u043e\u043d\u0441\u043a\u0438 \u0458\u0430\u0437\u0438\u043a",
        "id": "mk_MK",
        "code": "mk",
        "region": "MK",
        "regionName": "North Macedonia",
        "variant": null
    },
    {
        "isoName": "Malayalam",
        "nativeName": "\u0d2e\u0d32\u0d2f\u0d3e\u0d33\u0d02",
        "id": "ml",
        "code": "ml",
        "region": null,
        "regionName": null,
        "variant": null
    },
    {
        "isoName": "Malayalam",
        "nativeName": "\u0d2e\u0d32\u0d2f\u0d3e\u0d33\u0d02",
        "id": "ml_IN",
        "code": "ml",
        "region": "IN",
        "regionName": "India",
        "variant": null
    },
    {
        "isoName": "Mongolian",
        "nativeName": "\u041c\u043e\u043d\u0433\u043e\u043b \u0445\u044d\u043b",
        "id": "mn",
        "code": "mn",
        "region": null,
        "regionName": null,
        "variant": null
    },
    {
        "isoName": "Mongolian",
        "nativeName": "\u041c\u043e\u043d\u0433\u043e\u043b \u0445\u044d\u043b",
        "id": "mn_MN",
        "code": "mn",
        "region": "MN",
        "regionName": "Mongolia",
        "variant": null
    },
    {
        "isoName": "Manipuri",
        "nativeName": "Manipuri",
        "id": "mni",
        "code": "mni",
        "region": null,
        "regionName": null,
        "variant": null
    },
    {
        "isoName": "Manipuri",
        "nativeName": "Manipuri",
        "id": "mni_IN",
        "code": "mni",
        "region": "IN",
        "regionName": "India",
        "variant": null
    },
    {
        "isoName": "mo",
        "nativeName": "mo",
        "id": "mo",
        "code": "mo",
        "region": null,
        "regionName": null,
        "variant": null
    },
    {
        "isoName": "Marathi",
        "nativeName": "\u092e\u0930\u093e\u0920\u0940",
        "id": "mr",
        "code": "mr",
        "region": null,
        "regionName": null,
        "variant": null
    },
    {
        "isoName": "Marathi",
        "nativeName": "\u092e\u0930\u093e\u0920\u0940",
        "id": "mr_IN",
        "code": "mr",
        "region": "IN",
        "regionName": "India",
        "variant": null
    },
    {
        "isoName": "Malay",
        "nativeName": "Bahasa Melayu,\u00a0\u0628\u0647\u0627\u0633 \u0645\u0644\u0627\u064a\u0648\u200e",
        "id": "ms",
        "code": "ms",
        "region": null,
        "regionName": null,
        "variant": null
    },
    {
        "isoName": "Malay",
        "nativeName": "Bahasa Melayu,\u00a0\u0628\u0647\u0627\u0633 \u0645\u0644\u0627\u064a\u0648\u200e",
        "id": "ms_BN",
        "code": "ms",
        "region": "BN",
        "regionName": "Brunei Darussalam",
        "variant": null
    },
    {
        "isoName": "Malay",
        "nativeName": "Bahasa Melayu,\u00a0\u0628\u0647\u0627\u0633 \u0645\u0644\u0627\u064a\u0648\u200e",
        "id": "ms_MY",
        "code": "ms",
        "region": "MY",
        "regionName": "Malaysia",
        "variant": null
    },
    {
        "isoName": "Malay",
        "nativeName": "Bahasa Melayu,\u00a0\u0628\u0647\u0627\u0633 \u0645\u0644\u0627\u064a\u0648\u200e",
        "id": "ms_SG",
        "code": "ms",
        "region": "SG",
        "regionName": "Singapore",
        "variant": null
    },
    {
        "isoName": "Maltese",
        "nativeName": "Malti",
        "id": "mt",
        "code": "mt",
        "region": null,
        "regionName": null,
        "variant": null
    },
    {
        "isoName": "Maltese",
        "nativeName": "Malti",
        "id": "mt_MT",
        "code": "mt",
        "region": "MT",
        "regionName": "Malta",
        "variant": null
    },
    {
        "isoName": "Mundang",
        "nativeName": "Mundang",
        "id": "mua",
        "code": "mua",
        "region": null,
        "regionName": null,
        "variant": null
    },
    {
        "isoName": "Burmese",
        "nativeName": "\u1017\u1019\u102c\u1005\u102c",
        "id": "my",
        "code": "my",
        "region": null,
        "regionName": null,
        "variant": null
    },
    {
        "isoName": "Burmese",
        "nativeName": "\u1017\u1019\u102c\u1005\u102c",
        "id": "my_MM",
        "code": "my",
        "region": "MM",
        "regionName": "Myanmar",
        "variant": null
    },
    {
        "isoName": "Mazanderani",
        "nativeName": "Mazanderani",
        "id": "mzn",
        "code": "mzn",
        "region": null,
        "regionName": null,
        "variant": null
    },
    {
        "isoName": "Min Nan Chinese",
        "nativeName": "Min Nan Chinese",
        "id": "nan",
        "code": "nan",
        "region": null,
        "regionName": null,
        "variant": null
    },
    {
        "isoName": "Min Nan Chinese",
        "nativeName": "Min Nan Chinese",
        "id": "nan_TW",
        "code": "nan",
        "region": "TW",
        "regionName": "Taiwan",
        "variant": null
    },
    {
        "isoName": "Min Nan Chinese",
        "nativeName": "Min Nan Chinese",
        "id": "nan_TW@latin",
        "code": "nan",
        "region": null,
        "regionName": null,
        "variant": "TW@latin"
    },
    {
        "isoName": "Nama",
        "nativeName": "Nama",
        "id": "naq",
        "code": "naq",
        "region": null,
        "regionName": null,
        "variant": null
    },
    {
        "isoName": "Norwegian Bokm\u00e5l",
        "nativeName": "Norsk Bokm\u00e5l",
        "id": "nb",
        "code": "nb",
        "region": null,
        "regionName": null,
        "variant": null
    },
    {
        "isoName": "Norwegian Bokm\u00e5l",
        "nativeName": "Norsk Bokm\u00e5l",
        "id": "nb_NO",
        "code": "nb",
        "region": "NO",
        "regionName": "Norway",
        "variant": null
    },
    {
        "isoName": "Norwegian Bokm\u00e5l",
        "nativeName": "Norsk Bokm\u00e5l",
        "id": "nb_SJ",
        "code": "nb",
        "region": "SJ",
        "regionName": "Svalbard and Jan Mayen",
        "variant": null
    },
    {
        "isoName": "North Ndebele",
        "nativeName": "isiNdebele",
        "id": "nd",
        "code": "nd",
        "region": null,
        "regionName": null,
        "variant": null
    },
    {
        "isoName": "Low German",
        "nativeName": "Low German",
        "id": "nds",
        "code": "nds",
        "region": null,
        "regionName": null,
        "variant": null
    },
    {
        "isoName": "Low German",
        "nativeName": "Low German",
        "id": "nds_DE",
        "code": "nds",
        "region": "DE",
        "regionName": "Germany",
        "variant": null
    },
    {
        "isoName": "Low German",
        "nativeName": "Low German",
        "id": "nds_NL",
        "code": "nds",
        "region": "NL",
        "regionName": "Netherlands",
        "variant": null
    },
    {
        "isoName": "Nepali",
        "nativeName": "\u0928\u0947\u092a\u093e\u0932\u0940",
        "id": "ne",
        "code": "ne",
        "region": null,
        "regionName": null,
        "variant": null
    },
    {
        "isoName": "Nepali",
        "nativeName": "\u0928\u0947\u092a\u093e\u0932\u0940",
        "id": "ne_IN",
        "code": "ne",
        "region": "IN",
        "regionName": "India",
        "variant": null
    },
    {
        "isoName": "Nepali",
        "nativeName": "\u0928\u0947\u092a\u093e\u0932\u0940",
        "id": "ne_NP",
        "code": "ne",
        "region": "NP",
        "regionName": "Nepal",
        "variant": null
    },
    {
        "isoName": "Central Nahuatl",
        "nativeName": "Central Nahuatl",
        "id": "nhn",
        "code": "nhn",
        "region": null,
        "regionName": null,
        "variant": null
    },
    {
        "isoName": "Central Nahuatl",
        "nativeName": "Central Nahuatl",
        "id": "nhn_MX",
        "code": "nhn",
        "region": "MX",
        "regionName": "Mexico",
        "variant": null
    },
    {
        "isoName": "Niuean",
        "nativeName": "Niuean",
        "id": "niu",
        "code": "niu",
        "region": null,
        "regionName": null,
        "variant": null
    },
    {
        "isoName": "Niuean",
        "nativeName": "Niuean",
        "id": "niu_NU",
        "code": "niu",
        "region": "NU",
        "regionName": "Niue",
        "variant": null
    },
    {
        "isoName": "Dutch, Flemish",
        "nativeName": "Nederlands, Vlaams",
        "id": "nl",
        "code": "nl",
        "region": null,
        "regionName": null,
        "variant": null
    },
    {
        "isoName": "Dutch, Flemish",
        "nativeName": "Nederlands, Vlaams",
        "id": "nl_AW",
        "code": "nl",
        "region": "AW",
        "regionName": "Aruba",
        "variant": null
    },
    {
        "isoName": "Dutch, Flemish",
        "nativeName": "Nederlands, Vlaams",
        "id": "nl_BE",
        "code": "nl",
        "region": "BE",
        "regionName": "Belgium",
        "variant": null
    },
    {
        "isoName": "Dutch, Flemish",
        "nativeName": "Nederlands, Vlaams",
        "id": "nl_BQ",
        "code": "nl",
        "region": "BQ",
        "regionName": "Bonaire, Sint Eustatius and Saba",
        "variant": null
    },
    {
        "isoName": "Dutch, Flemish",
        "nativeName": "Nederlands, Vlaams",
        "id": "nl_CW",
        "code": "nl",
        "region": "CW",
        "regionName": "Cura\u00e7ao",
        "variant": null
    },
    {
        "isoName": "Dutch, Flemish",
        "nativeName": "Nederlands, Vlaams",
        "id": "nl_NL",
        "code": "nl",
        "region": "NL",
        "regionName": "Netherlands",
        "variant": null
    },
    {
        "isoName": "Dutch, Flemish",
        "nativeName": "Nederlands, Vlaams",
        "id": "nl_SR",
        "code": "nl",
        "region": "SR",
        "regionName": "Suriname",
        "variant": null
    },
    {
        "isoName": "Dutch, Flemish",
        "nativeName": "Nederlands, Vlaams",
        "id": "nl_SX",
        "code": "nl",
        "region": "SX",
        "regionName": "Sint Maarten (Dutch part)",
        "variant": null
    },
    {
        "isoName": "Kwasio",
        "nativeName": "Kwasio",
        "id": "nmg",
        "code": "nmg",
        "region": null,
        "regionName": null,
        "variant": null
    },
    {
        "isoName": "Norwegian Nynorsk",
        "nativeName": "Norsk Nynorsk",
        "id": "nn",
        "code": "nn",
        "region": null,
        "regionName": null,
        "variant": null
    },
    {
        "isoName": "Norwegian Nynorsk",
        "nativeName": "Norsk Nynorsk",
        "id": "nn_NO",
        "code": "nn",
        "region": "NO",
        "regionName": "Norway",
        "variant": null
    },
    {
        "isoName": "Ngiemboon",
        "nativeName": "Ngiemboon",
        "id": "nnh",
        "code": "nnh",
        "region": null,
        "regionName": null,
        "variant": null
    },
    {
        "isoName": "Norwegian",
        "nativeName": "Norsk",
        "id": "no",
        "code": "no",
        "region": null,
        "regionName": null,
        "variant": null
    },
    {
        "isoName": "South Ndebele",
        "nativeName": "isiNdebele",
        "id": "nr",
        "code": "nr",
        "region": null,
        "regionName": null,
        "variant": null
    },
    {
        "isoName": "South Ndebele",
        "nativeName": "isiNdebele",
        "id": "nr_ZA",
        "code": "nr",
        "region": "ZA",
        "regionName": "South Africa",
        "variant": null
    },
    {
        "isoName": "Northern Sotho",
        "nativeName": "Northern Sotho",
        "id": "nso",
        "code": "nso",
        "region": null,
        "regionName": null,
        "variant": null
    },
    {
        "isoName": "Northern Sotho",
        "nativeName": "Northern Sotho",
        "id": "nso_ZA",
        "code": "nso",
        "region": "ZA",
        "regionName": "South Africa",
        "variant": null
    },
    {
        "isoName": "Nuer",
        "nativeName": "Nuer",
        "id": "nus",
        "code": "nus",
        "region": null,
        "regionName": null,
        "variant": null
    },
    {
        "isoName": "Nyankole",
        "nativeName": "Nyankole",
        "id": "nyn",
        "code": "nyn",
        "region": null,
        "regionName": null,
        "variant": null
    },
    {
        "isoName": "Occitan",
        "nativeName": "occitan, lenga d'\u00f2c",
        "id": "oc",
        "code": "oc",
        "region": null,
        "regionName": null,
        "variant": null
    },
    {
        "isoName": "Occitan",
        "nativeName": "occitan, lenga d'\u00f2c",
        "id": "oc_FR",
        "code": "oc",
        "region": "FR",
        "regionName": "France",
        "variant": null
    },
    {
        "isoName": "Oromo",
        "nativeName": "Afaan Oromoo",
        "id": "om",
        "code": "om",
        "region": null,
        "regionName": null,
        "variant": null
    },
    {
        "isoName": "Oromo",
        "nativeName": "Afaan Oromoo",
        "id": "om_ET",
        "code": "om",
        "region": "ET",
        "regionName": "Ethiopia",
        "variant": null
    },
    {
        "isoName": "Oromo",
        "nativeName": "Afaan Oromoo",
        "id": "om_KE",
        "code": "om",
        "region": "KE",
        "regionName": "Kenya",
        "variant": null
    },
    {
        "isoName": "Oriya",
        "nativeName": "\u0b13\u0b21\u0b3c\u0b3f\u0b06",
        "id": "or",
        "code": "or",
        "region": null,
        "regionName": null,
        "variant": null
    },
    {
        "isoName": "Oriya",
        "nativeName": "\u0b13\u0b21\u0b3c\u0b3f\u0b06",
        "id": "or_IN",
        "code": "or",
        "region": "IN",
        "regionName": "India",
        "variant": null
    },
    {
        "isoName": "Ossetian, Ossetic",
        "nativeName": "\u0438\u0440\u043e\u043d \u00e6\u0432\u0437\u0430\u0433",
        "id": "os",
        "code": "os",
        "region": null,
        "regionName": null,
        "variant": null
    },
    {
        "isoName": "Ossetian, Ossetic",
        "nativeName": "\u0438\u0440\u043e\u043d \u00e6\u0432\u0437\u0430\u0433",
        "id": "os_RU",
        "code": "os",
        "region": "RU",
        "regionName": "Russian Federation",
        "variant": null
    },
    {
        "isoName": "Panjabi, Punjabi",
        "nativeName": "\u0a2a\u0a70\u0a1c\u0a3e\u0a2c\u0a40",
        "id": "pa",
        "code": "pa",
        "region": null,
        "regionName": null,
        "variant": null
    },
    {
        "isoName": "Panjabi, Punjabi",
        "nativeName": "\u0a2a\u0a70\u0a1c\u0a3e\u0a2c\u0a40",
        "id": "pa_Arab",
        "code": "pa",
        "region": null,
        "regionName": null,
        "variant": "Arab"
    },
    {
        "isoName": "Panjabi, Punjabi",
        "nativeName": "\u0a2a\u0a70\u0a1c\u0a3e\u0a2c\u0a40",
        "id": "pa_Guru",
        "code": "pa",
        "region": null,
        "regionName": null,
        "variant": "Guru"
    },
    {
        "isoName": "Panjabi, Punjabi",
        "nativeName": "\u0a2a\u0a70\u0a1c\u0a3e\u0a2c\u0a40",
        "id": "pa_IN",
        "code": "pa",
        "region": "IN",
        "regionName": "India",
        "variant": null
    },
    {
        "isoName": "Panjabi, Punjabi",
        "nativeName": "\u0a2a\u0a70\u0a1c\u0a3e\u0a2c\u0a40",
        "id": "pa_PK",
        "code": "pa",
        "region": "PK",
        "regionName": "Pakistan",
        "variant": null
    },
    {
        "isoName": "Papiamento",
        "nativeName": "Papiamento",
        "id": "pap",
        "code": "pap",
        "region": null,
        "regionName": null,
        "variant": null
    },
    {
        "isoName": "Papiamento",
        "nativeName": "Papiamento",
        "id": "pap_AW",
        "code": "pap",
        "region": "AW",
        "regionName": "Aruba",
        "variant": null
    },
    {
        "isoName": "Papiamento",
        "nativeName": "Papiamento",
        "id": "pap_CW",
        "code": "pap",
        "region": "CW",
        "regionName": "Cura\u00e7ao",
        "variant": null
    },
    {
        "isoName": "Polish",
        "nativeName": "j\u0119zyk polski, polszczyzna",
        "id": "pl",
        "code": "pl",
        "region": null,
        "regionName": null,
        "variant": null
    },
    {
        "isoName": "Polish",
        "nativeName": "j\u0119zyk polski, polszczyzna",
        "id": "pl_PL",
        "code": "pl",
        "region": "PL",
        "regionName": "Poland",
        "variant": null
    },
    {
        "isoName": "Prussian",
        "nativeName": "Prussian",
        "id": "prg",
        "code": "prg",
        "region": null,
        "regionName": null,
        "variant": null
    },
    {
        "isoName": "Pashto, Pushto",
        "nativeName": "\u067e\u069a\u062a\u0648",
        "id": "ps",
        "code": "ps",
        "region": null,
        "regionName": null,
        "variant": null
    },
    {
        "isoName": "Pashto, Pushto",
        "nativeName": "\u067e\u069a\u062a\u0648",
        "id": "ps_AF",
        "code": "ps",
        "region": "AF",
        "regionName": "Afghanistan",
        "variant": null
    },
    {
        "isoName": "Portuguese",
        "nativeName": "Portugu\u00eas",
        "id": "pt",
        "code": "pt",
        "region": null,
        "regionName": null,
        "variant": null
    },
    {
        "isoName": "Portuguese",
        "nativeName": "Portugu\u00eas",
        "id": "pt_AO",
        "code": "pt",
        "region": "AO",
        "regionName": "Angola",
        "variant": null
    },
    {
        "isoName": "Portuguese",
        "nativeName": "Portugu\u00eas",
        "id": "pt_BR",
        "code": "pt",
        "region": "BR",
        "regionName": "Brazil",
        "variant": null
    },
    {
        "isoName": "Portuguese",
        "nativeName": "Portugu\u00eas",
        "id": "pt_CH",
        "code": "pt",
        "region": "CH",
        "regionName": "Switzerland",
        "variant": null
    },
    {
        "isoName": "Portuguese",
        "nativeName": "Portugu\u00eas",
        "id": "pt_CV",
        "code": "pt",
        "region": "CV",
        "regionName": "Cabo Verde",
        "variant": null
    },
    {
        "isoName": "Portuguese",
        "nativeName": "Portugu\u00eas",
        "id": "pt_GQ",
        "code": "pt",
        "region": "GQ",
        "regionName": "Equatorial Guinea",
        "variant": null
    },
    {
        "isoName": "Portuguese",
        "nativeName": "Portugu\u00eas",
        "id": "pt_GW",
        "code": "pt",
        "region": "GW",
        "regionName": "Guinea-Bissau",
        "variant": null
    },
    {
        "isoName": "Portuguese",
        "nativeName": "Portugu\u00eas",
        "id": "pt_LU",
        "code": "pt",
        "region": "LU",
        "regionName": "Luxembourg",
        "variant": null
    },
    {
        "isoName": "Portuguese",
        "nativeName": "Portugu\u00eas",
        "id": "pt_MO",
        "code": "pt",
        "region": "MO",
        "regionName": "Macao",
        "variant": null
    },
    {
        "isoName": "Portuguese",
        "nativeName": "Portugu\u00eas",
        "id": "pt_MZ",
        "code": "pt",
        "region": "MZ",
        "regionName": "Mozambique",
        "variant": null
    },
    {
        "isoName": "Portuguese",
        "nativeName": "Portugu\u00eas",
        "id": "pt_PT",
        "code": "pt",
        "region": "PT",
        "regionName": "Portugal",
        "variant": null
    },
    {
        "isoName": "Portuguese",
        "nativeName": "Portugu\u00eas",
        "id": "pt_ST",
        "code": "pt",
        "region": "ST",
        "regionName": "Sao Tome and Principe",
        "variant": null
    },
    {
        "isoName": "Portuguese",
        "nativeName": "Portugu\u00eas",
        "id": "pt_TL",
        "code": "pt",
        "region": "TL",
        "regionName": "Timor-Leste",
        "variant": null
    },
    {
        "isoName": "Quechua",
        "nativeName": "Runa Simi, Kichwa",
        "id": "qu",
        "code": "qu",
        "region": null,
        "regionName": null,
        "variant": null
    },
    {
        "isoName": "Quechua",
        "nativeName": "Runa Simi, Kichwa",
        "id": "qu_BO",
        "code": "qu",
        "region": "BO",
        "regionName": "Bolivia",
        "variant": null
    },
    {
        "isoName": "Quechua",
        "nativeName": "Runa Simi, Kichwa",
        "id": "qu_EC",
        "code": "qu",
        "region": "EC",
        "regionName": "Ecuador",
        "variant": null
    },
    {
        "isoName": "Cusco Quechua",
        "nativeName": "Cusco Quechua",
        "id": "quz",
        "code": "quz",
        "region": null,
        "regionName": null,
        "variant": null
    },
    {
        "isoName": "Cusco Quechua",
        "nativeName": "Cusco Quechua",
        "id": "quz_PE",
        "code": "quz",
        "region": "PE",
        "regionName": "Peru",
        "variant": null
    },
    {
        "isoName": "Rajasthani",
        "nativeName": "Rajasthani",
        "id": "raj",
        "code": "raj",
        "region": null,
        "regionName": null,
        "variant": null
    },
    {
        "isoName": "Rajasthani",
        "nativeName": "Rajasthani",
        "id": "raj_IN",
        "code": "raj",
        "region": "IN",
        "regionName": "India",
        "variant": null
    },
    {
        "isoName": "Romansh",
        "nativeName": "Rumantsch Grischun",
        "id": "rm",
        "code": "rm",
        "region": null,
        "regionName": null,
        "variant": null
    },
    {
        "isoName": "Rundi",
        "nativeName": "Ikirundi",
        "id": "rn",
        "code": "rn",
        "region": null,
        "regionName": null,
        "variant": null
    },
    {
        "isoName": "Romanian, Moldavian, Moldovan",
        "nativeName": "Rom\u00e2n\u0103",
        "id": "ro",
        "code": "ro",
        "region": null,
        "regionName": null,
        "variant": null
    },
    {
        "isoName": "Romanian, Moldavian, Moldovan",
        "nativeName": "Rom\u00e2n\u0103",
        "id": "ro_MD",
        "code": "ro",
        "region": "MD",
        "regionName": "Moldova",
        "variant": null
    },
    {
        "isoName": "Romanian, Moldavian, Moldovan",
        "nativeName": "Rom\u00e2n\u0103",
        "id": "ro_RO",
        "code": "ro",
        "region": "RO",
        "regionName": "Romania",
        "variant": null
    },
    {
        "isoName": "Rombo",
        "nativeName": "Rombo",
        "id": "rof",
        "code": "rof",
        "region": null,
        "regionName": null,
        "variant": null
    },
    {
        "isoName": "Russian",
        "nativeName": "\u0440\u0443\u0441\u0441\u043a\u0438\u0439",
        "id": "ru",
        "code": "ru",
        "region": null,
        "regionName": null,
        "variant": null
    },
    {
        "isoName": "Russian",
        "nativeName": "\u0440\u0443\u0441\u0441\u043a\u0438\u0439",
        "id": "ru_BY",
        "code": "ru",
        "region": "BY",
        "regionName": "Belarus",
        "variant": null
    },
    {
        "isoName": "Russian",
        "nativeName": "\u0440\u0443\u0441\u0441\u043a\u0438\u0439",
        "id": "ru_KG",
        "code": "ru",
        "region": "KG",
        "regionName": "Kyrgyzstan",
        "variant": null
    },
    {
        "isoName": "Russian",
        "nativeName": "\u0440\u0443\u0441\u0441\u043a\u0438\u0439",
        "id": "ru_KZ",
        "code": "ru",
        "region": "KZ",
        "regionName": "Kazakhstan",
        "variant": null
    },
    {
        "isoName": "Russian",
        "nativeName": "\u0440\u0443\u0441\u0441\u043a\u0438\u0439",
        "id": "ru_MD",
        "code": "ru",
        "region": "MD",
        "regionName": "Moldova",
        "variant": null
    },
    {
        "isoName": "Russian",
        "nativeName": "\u0440\u0443\u0441\u0441\u043a\u0438\u0439",
        "id": "ru_RU",
        "code": "ru",
        "region": "RU",
        "regionName": "Russian Federation",
        "variant": null
    },
    {
        "isoName": "Russian",
        "nativeName": "\u0440\u0443\u0441\u0441\u043a\u0438\u0439",
        "id": "ru_UA",
        "code": "ru",
        "region": "UA",
        "regionName": "Ukraine",
        "variant": null
    },
    {
        "isoName": "Kinyarwanda",
        "nativeName": "Ikinyarwanda",
        "id": "rw",
        "code": "rw",
        "region": null,
        "regionName": null,
        "variant": null
    },
    {
        "isoName": "Kinyarwanda",
        "nativeName": "Ikinyarwanda",
        "id": "rw_RW",
        "code": "rw",
        "region": "RW",
        "regionName": "Rwanda",
        "variant": null
    },
    {
        "isoName": "Rwa",
        "nativeName": "Rwa",
        "id": "rwk",
        "code": "rwk",
        "region": null,
        "regionName": null,
        "variant": null
    },
    {
        "isoName": "Sanskrit",
        "nativeName": "\u0938\u0902\u0938\u094d\u0915\u0943\u0924\u092e\u094d",
        "id": "sa",
        "code": "sa",
        "region": null,
        "regionName": null,
        "variant": null
    },
    {
        "isoName": "Sanskrit",
        "nativeName": "\u0938\u0902\u0938\u094d\u0915\u0943\u0924\u092e\u094d",
        "id": "sa_IN",
        "code": "sa",
        "region": "IN",
        "regionName": "India",
        "variant": null
    },
    {
        "isoName": "Sakha",
        "nativeName": "Sakha",
        "id": "sah",
        "code": "sah",
        "region": null,
        "regionName": null,
        "variant": null
    },
    {
        "isoName": "Sakha",
        "nativeName": "Sakha",
        "id": "sah_RU",
        "code": "sah",
        "region": "RU",
        "regionName": "Russian Federation",
        "variant": null
    },
    {
        "isoName": "Samburu",
        "nativeName": "Samburu",
        "id": "saq",
        "code": "saq",
        "region": null,
        "regionName": null,
        "variant": null
    },
    {
        "isoName": "Santali",
        "nativeName": "Santali",
        "id": "sat",
        "code": "sat",
        "region": null,
        "regionName": null,
        "variant": null
    },
    {
        "isoName": "Santali",
        "nativeName": "Santali",
        "id": "sat_IN",
        "code": "sat",
        "region": "IN",
        "regionName": "India",
        "variant": null
    },
    {
        "isoName": "Sangu",
        "nativeName": "Sangu",
        "id": "sbp",
        "code": "sbp",
        "region": null,
        "regionName": null,
        "variant": null
    },
    {
        "isoName": "Sardinian",
        "nativeName": "sardu",
        "id": "sc",
        "code": "sc",
        "region": null,
        "regionName": null,
        "variant": null
    },
    {
        "isoName": "Sardinian",
        "nativeName": "sardu",
        "id": "sc_IT",
        "code": "sc",
        "region": "IT",
        "regionName": "Italy",
        "variant": null
    },
    {
        "isoName": "Sindhi",
        "nativeName": "\u0938\u093f\u0928\u094d\u0927\u0940,\u00a0\u0633\u0646\u068c\u064a\u060c \u0633\u0646\u062f\u06be\u06cc\u200e",
        "id": "sd",
        "code": "sd",
        "region": null,
        "regionName": null,
        "variant": null
    },
    {
        "isoName": "Sindhi",
        "nativeName": "\u0938\u093f\u0928\u094d\u0927\u0940,\u00a0\u0633\u0646\u068c\u064a\u060c \u0633\u0646\u062f\u06be\u06cc\u200e",
        "id": "sd_IN",
        "code": "sd",
        "region": "IN",
        "regionName": "India",
        "variant": null
    },
    {
        "isoName": "Sindhi",
        "nativeName": "\u0938\u093f\u0928\u094d\u0927\u0940,\u00a0\u0633\u0646\u068c\u064a\u060c \u0633\u0646\u062f\u06be\u06cc\u200e",
        "id": "sd_IN@devanagari",
        "code": "sd",
        "region": null,
        "regionName": null,
        "variant": "IN@devanagari"
    },
    {
        "isoName": "Northern Sami",
        "nativeName": "Davvis\u00e1megiella",
        "id": "se",
        "code": "se",
        "region": null,
        "regionName": null,
        "variant": null
    },
    {
        "isoName": "Northern Sami",
        "nativeName": "Davvis\u00e1megiella",
        "id": "se_FI",
        "code": "se",
        "region": "FI",
        "regionName": "Finland",
        "variant": null
    },
    {
        "isoName": "Northern Sami",
        "nativeName": "Davvis\u00e1megiella",
        "id": "se_NO",
        "code": "se",
        "region": "NO",
        "regionName": "Norway",
        "variant": null
    },
    {
        "isoName": "Northern Sami",
        "nativeName": "Davvis\u00e1megiella",
        "id": "se_SE",
        "code": "se",
        "region": "SE",
        "regionName": "Sweden",
        "variant": null
    },
    {
        "isoName": "Sena",
        "nativeName": "Sena",
        "id": "seh",
        "code": "seh",
        "region": null,
        "regionName": null,
        "variant": null
    },
    {
        "isoName": "Koyraboro Senni",
        "nativeName": "Koyraboro Senni",
        "id": "ses",
        "code": "ses",
        "region": null,
        "regionName": null,
        "variant": null
    },
    {
        "isoName": "Sango",
        "nativeName": "y\u00e2ng\u00e2 t\u00ee s\u00e4ng\u00f6",
        "id": "sg",
        "code": "sg",
        "region": null,
        "regionName": null,
        "variant": null
    },
    {
        "isoName": "Samogitian",
        "nativeName": "Samogitian",
        "id": "sgs",
        "code": "sgs",
        "region": null,
        "regionName": null,
        "variant": null
    },
    {
        "isoName": "Samogitian",
        "nativeName": "Samogitian",
        "id": "sgs_LT",
        "code": "sgs",
        "region": "LT",
        "regionName": "Lithuania",
        "variant": null
    },
    {
        "isoName": "sh",
        "nativeName": "sh",
        "id": "sh",
        "code": "sh",
        "region": null,
        "regionName": null,
        "variant": null
    },
    {
        "isoName": "Tachelhit",
        "nativeName": "Tachelhit",
        "id": "shi",
        "code": "shi",
        "region": null,
        "regionName": null,
        "variant": null
    },
    {
        "isoName": "Tachelhit",
        "nativeName": "Tachelhit",
        "id": "shi_Latn",
        "code": "shi",
        "region": null,
        "regionName": null,
        "variant": "Latin"
    },
    {
        "isoName": "Tachelhit",
        "nativeName": "Tachelhit",
        "id": "shi_Tfng",
        "code": "shi",
        "region": null,
        "regionName": null,
        "variant": "Tfng"
    },
    {
        "isoName": "Shan",
        "nativeName": "Shan",
        "id": "shn",
        "code": "shn",
        "region": null,
        "regionName": null,
        "variant": null
    },
    {
        "isoName": "Shan",
        "nativeName": "Shan",
        "id": "shn_MM",
        "code": "shn",
        "region": "MM",
        "regionName": "Myanmar",
        "variant": null
    },
    {
        "isoName": "Shuswap",
        "nativeName": "Shuswap",
        "id": "shs",
        "code": "shs",
        "region": null,
        "regionName": null,
        "variant": null
    },
    {
        "isoName": "Shuswap",
        "nativeName": "Shuswap",
        "id": "shs_CA",
        "code": "shs",
        "region": "CA",
        "regionName": "Canada",
        "variant": null
    },
    {
        "isoName": "Sinhala, Sinhalese",
        "nativeName": "\u0dc3\u0dd2\u0d82\u0dc4\u0dbd",
        "id": "si",
        "code": "si",
        "region": null,
        "regionName": null,
        "variant": null
    },
    {
        "isoName": "Sinhala, Sinhalese",
        "nativeName": "\u0dc3\u0dd2\u0d82\u0dc4\u0dbd",
        "id": "si_LK",
        "code": "si",
        "region": "LK",
        "regionName": "Sri Lanka",
        "variant": null
    },
    {
        "isoName": "Sidamo",
        "nativeName": "Sidamo",
        "id": "sid",
        "code": "sid",
        "region": null,
        "regionName": null,
        "variant": null
    },
    {
        "isoName": "Sidamo",
        "nativeName": "Sidamo",
        "id": "sid_ET",
        "code": "sid",
        "region": "ET",
        "regionName": "Ethiopia",
        "variant": null
    },
    {
        "isoName": "Slovak",
        "nativeName": "Sloven\u010dina, Slovensk\u00fd Jazyk",
        "id": "sk",
        "code": "sk",
        "region": null,
        "regionName": null,
        "variant": null
    },
    {
        "isoName": "Slovak",
        "nativeName": "Sloven\u010dina, Slovensk\u00fd Jazyk",
        "id": "sk_SK",
        "code": "sk",
        "region": "SK",
        "regionName": "Slovakia",
        "variant": null
    },
    {
        "isoName": "Slovene",
        "nativeName": "Slovenski Jezik, Sloven\u0161\u010dina",
        "id": "sl",
        "code": "sl",
        "region": null,
        "regionName": null,
        "variant": null
    },
    {
        "isoName": "Slovene",
        "nativeName": "Slovenski Jezik, Sloven\u0161\u010dina",
        "id": "sl_SI",
        "code": "sl",
        "region": "SI",
        "regionName": "Slovenia",
        "variant": null
    },
    {
        "isoName": "Samoan",
        "nativeName": "gagana fa'a Samoa",
        "id": "sm",
        "code": "sm",
        "region": null,
        "regionName": null,
        "variant": null
    },
    {
        "isoName": "Samoan",
        "nativeName": "gagana fa'a Samoa",
        "id": "sm_WS",
        "code": "sm",
        "region": "WS",
        "regionName": "Samoa",
        "variant": null
    },
    {
        "isoName": "Inari Sami",
        "nativeName": "Inari Sami",
        "id": "smn",
        "code": "smn",
        "region": null,
        "regionName": null,
        "variant": null
    },
    {
        "isoName": "Shona",
        "nativeName": "chiShona",
        "id": "sn",
        "code": "sn",
        "region": null,
        "regionName": null,
        "variant": null
    },
    {
        "isoName": "Somali",
        "nativeName": "Soomaaliga, af Soomaali",
        "id": "so",
        "code": "so",
        "region": null,
        "regionName": null,
        "variant": null
    },
    {
        "isoName": "Somali",
        "nativeName": "Soomaaliga, af Soomaali",
        "id": "so_DJ",
        "code": "so",
        "region": "DJ",
        "regionName": "Djibouti",
        "variant": null
    },
    {
        "isoName": "Somali",
        "nativeName": "Soomaaliga, af Soomaali",
        "id": "so_ET",
        "code": "so",
        "region": "ET",
        "regionName": "Ethiopia",
        "variant": null
    },
    {
        "isoName": "Somali",
        "nativeName": "Soomaaliga, af Soomaali",
        "id": "so_KE",
        "code": "so",
        "region": "KE",
        "regionName": "Kenya",
        "variant": null
    },
    {
        "isoName": "Somali",
        "nativeName": "Soomaaliga, af Soomaali",
        "id": "so_SO",
        "code": "so",
        "region": "SO",
        "regionName": "Somalia",
        "variant": null
    },
    {
        "isoName": "Albanian",
        "nativeName": "Shqip",
        "id": "sq",
        "code": "sq",
        "region": null,
        "regionName": null,
        "variant": null
    },
    {
        "isoName": "Albanian",
        "nativeName": "Shqip",
        "id": "sq_AL",
        "code": "sq",
        "region": "AL",
        "regionName": "Albania",
        "variant": null
    },
    {
        "isoName": "Albanian",
        "nativeName": "Shqip",
        "id": "sq_MK",
        "code": "sq",
        "region": "MK",
        "regionName": "North Macedonia",
        "variant": null
    },
    {
        "isoName": "Albanian",
        "nativeName": "Shqip",
        "id": "sq_XK",
        "code": "sq",
        "region": "XK",
        "regionName": "XK",
        "variant": null
    },
    {
        "isoName": "Serbian",
        "nativeName": "\u0441\u0440\u043f\u0441\u043a\u0438 \u0458\u0435\u0437\u0438\u043a",
        "id": "sr",
        "code": "sr",
        "region": null,
        "regionName": null,
        "variant": null
    },
    {
        "isoName": "Serbian",
        "nativeName": "\u0441\u0440\u043f\u0441\u043a\u0438 \u0458\u0435\u0437\u0438\u043a",
        "id": "sr_Cyrl",
        "code": "sr",
        "region": null,
        "regionName": null,
        "variant": "Cyrillic"
    },
    {
        "isoName": "Serbian",
        "nativeName": "\u0441\u0440\u043f\u0441\u043a\u0438 \u0458\u0435\u0437\u0438\u043a",
        "id": "sr_Cyrl_BA",
        "code": "sr",
        "region": "BA",
        "regionName": "Bosnia and Herzegovina",
        "variant": "Cyrillic"
    },
    {
        "isoName": "Serbian",
        "nativeName": "\u0441\u0440\u043f\u0441\u043a\u0438 \u0458\u0435\u0437\u0438\u043a",
        "id": "sr_Cyrl_ME",
        "code": "sr",
        "region": "ME",
        "regionName": "Montenegro",
        "variant": "Cyrillic"
    },
    {
        "isoName": "Serbian",
        "nativeName": "\u0441\u0440\u043f\u0441\u043a\u0438 \u0458\u0435\u0437\u0438\u043a",
        "id": "sr_Cyrl_XK",
        "code": "sr",
        "region": "XK",
        "regionName": "XK",
        "variant": "Cyrillic"
    },
    {
        "isoName": "Serbian",
        "nativeName": "\u0441\u0440\u043f\u0441\u043a\u0438 \u0458\u0435\u0437\u0438\u043a",
        "id": "sr_Latn",
        "code": "sr",
        "region": null,
        "regionName": null,
        "variant": "Latin"
    },
    {
        "isoName": "Serbian",
        "nativeName": "\u0441\u0440\u043f\u0441\u043a\u0438 \u0458\u0435\u0437\u0438\u043a",
        "id": "sr_Latn_BA",
        "code": "sr",
        "region": "BA",
        "regionName": "Bosnia and Herzegovina",
        "variant": "Latin"
    },
    {
        "isoName": "Serbian",
        "nativeName": "\u0441\u0440\u043f\u0441\u043a\u0438 \u0458\u0435\u0437\u0438\u043a",
        "id": "sr_Latn_ME",
        "code": "sr",
        "region": "ME",
        "regionName": "Montenegro",
        "variant": "Latin"
    },
    {
        "isoName": "Serbian",
        "nativeName": "\u0441\u0440\u043f\u0441\u043a\u0438 \u0458\u0435\u0437\u0438\u043a",
        "id": "sr_Latn_XK",
        "code": "sr",
        "region": "XK",
        "regionName": "XK",
        "variant": "Latin"
    },
    {
        "isoName": "Serbian",
        "nativeName": "\u0441\u0440\u043f\u0441\u043a\u0438 \u0458\u0435\u0437\u0438\u043a",
        "id": "sr_ME",
        "code": "sr",
        "region": "ME",
        "regionName": "Montenegro",
        "variant": null
    },
    {
        "isoName": "Serbian",
        "nativeName": "\u0441\u0440\u043f\u0441\u043a\u0438 \u0458\u0435\u0437\u0438\u043a",
        "id": "sr_RS",
        "code": "sr",
        "region": "RS",
        "regionName": "Serbia",
        "variant": null
    },
    {
        "isoName": "Serbian",
        "nativeName": "\u0441\u0440\u043f\u0441\u043a\u0438 \u0458\u0435\u0437\u0438\u043a",
        "id": "sr_RS@latin",
        "code": "sr",
        "region": null,
        "regionName": null,
        "variant": "RS@latin"
    },
    {
        "isoName": "Swati",
        "nativeName": "SiSwati",
        "id": "ss",
        "code": "ss",
        "region": null,
        "regionName": null,
        "variant": null
    },
    {
        "isoName": "Swati",
        "nativeName": "SiSwati",
        "id": "ss_ZA",
        "code": "ss",
        "region": "ZA",
        "regionName": "South Africa",
        "variant": null
    },
    {
        "isoName": "Southern Sotho",
        "nativeName": "Sesotho",
        "id": "st",
        "code": "st",
        "region": null,
        "regionName": null,
        "variant": null
    },
    {
        "isoName": "Southern Sotho",
        "nativeName": "Sesotho",
        "id": "st_ZA",
        "code": "st",
        "region": "ZA",
        "regionName": "South Africa",
        "variant": null
    },
    {
        "isoName": "Swedish",
        "nativeName": "Svenska",
        "id": "sv",
        "code": "sv",
        "region": null,
        "regionName": null,
        "variant": null
    },
    {
        "isoName": "Swedish",
        "nativeName": "Svenska",
        "id": "sv_AX",
        "code": "sv",
        "region": "AX",
        "regionName": "\u00c5land Islands",
        "variant": null
    },
    {
        "isoName": "Swedish",
        "nativeName": "Svenska",
        "id": "sv_FI",
        "code": "sv",
        "region": "FI",
        "regionName": "Finland",
        "variant": null
    },
    {
        "isoName": "Swedish",
        "nativeName": "Svenska",
        "id": "sv_SE",
        "code": "sv",
        "region": "SE",
        "regionName": "Sweden",
        "variant": null
    },
    {
        "isoName": "Swahili",
        "nativeName": "Kiswahili",
        "id": "sw",
        "code": "sw",
        "region": null,
        "regionName": null,
        "variant": null
    },
    {
        "isoName": "Swahili",
        "nativeName": "Kiswahili",
        "id": "sw_CD",
        "code": "sw",
        "region": "CD",
        "regionName": "Congo, Democratic Republic of the",
        "variant": null
    },
    {
        "isoName": "Swahili",
        "nativeName": "Kiswahili",
        "id": "sw_KE",
        "code": "sw",
        "region": "KE",
        "regionName": "Kenya",
        "variant": null
    },
    {
        "isoName": "Swahili",
        "nativeName": "Kiswahili",
        "id": "sw_TZ",
        "code": "sw",
        "region": "TZ",
        "regionName": "Tanzania",
        "variant": null
    },
    {
        "isoName": "Swahili",
        "nativeName": "Kiswahili",
        "id": "sw_UG",
        "code": "sw",
        "region": "UG",
        "regionName": "Uganda",
        "variant": null
    },
    {
        "isoName": "Silesian",
        "nativeName": "Silesian",
        "id": "szl",
        "code": "szl",
        "region": null,
        "regionName": null,
        "variant": null
    },
    {
        "isoName": "Silesian",
        "nativeName": "Silesian",
        "id": "szl_PL",
        "code": "szl",
        "region": "PL",
        "regionName": "Poland",
        "variant": null
    },
    {
        "isoName": "Tamil",
        "nativeName": "\u0ba4\u0bae\u0bbf\u0bb4\u0bcd",
        "id": "ta",
        "code": "ta",
        "region": null,
        "regionName": null,
        "variant": null
    },
    {
        "isoName": "Tamil",
        "nativeName": "\u0ba4\u0bae\u0bbf\u0bb4\u0bcd",
        "id": "ta_IN",
        "code": "ta",
        "region": "IN",
        "regionName": "India",
        "variant": null
    },
    {
        "isoName": "Tamil",
        "nativeName": "\u0ba4\u0bae\u0bbf\u0bb4\u0bcd",
        "id": "ta_LK",
        "code": "ta",
        "region": "LK",
        "regionName": "Sri Lanka",
        "variant": null
    },
    {
        "isoName": "Tamil",
        "nativeName": "\u0ba4\u0bae\u0bbf\u0bb4\u0bcd",
        "id": "ta_MY",
        "code": "ta",
        "region": "MY",
        "regionName": "Malaysia",
        "variant": null
    },
    {
        "isoName": "Tamil",
        "nativeName": "\u0ba4\u0bae\u0bbf\u0bb4\u0bcd",
        "id": "ta_SG",
        "code": "ta",
        "region": "SG",
        "regionName": "Singapore",
        "variant": null
    },
    {
        "isoName": "Tulu",
        "nativeName": "Tulu",
        "id": "tcy",
        "code": "tcy",
        "region": null,
        "regionName": null,
        "variant": null
    },
    {
        "isoName": "Tulu",
        "nativeName": "Tulu",
        "id": "tcy_IN",
        "code": "tcy",
        "region": "IN",
        "regionName": "India",
        "variant": null
    },
    {
        "isoName": "Telugu",
        "nativeName": "\u0c24\u0c46\u0c32\u0c41\u0c17\u0c41",
        "id": "te",
        "code": "te",
        "region": null,
        "regionName": null,
        "variant": null
    },
    {
        "isoName": "Telugu",
        "nativeName": "\u0c24\u0c46\u0c32\u0c41\u0c17\u0c41",
        "id": "te_IN",
        "code": "te",
        "region": "IN",
        "regionName": "India",
        "variant": null
    },
    {
        "isoName": "Teso",
        "nativeName": "Teso",
        "id": "teo",
        "code": "teo",
        "region": null,
        "regionName": null,
        "variant": null
    },
    {
        "isoName": "Teso",
        "nativeName": "Teso",
        "id": "teo_KE",
        "code": "teo",
        "region": "KE",
        "regionName": "Kenya",
        "variant": null
    },
    {
        "isoName": "Tetum",
        "nativeName": "Tetum",
        "id": "tet",
        "code": "tet",
        "region": null,
        "regionName": null,
        "variant": null
    },
    {
        "isoName": "Tajik",
        "nativeName": "\u0442\u043e\u04b7\u0438\u043a\u04e3,\u00a0to\u00e7ik\u012b,\u00a0\u062a\u0627\u062c\u06cc\u06a9\u06cc\u200e",
        "id": "tg",
        "code": "tg",
        "region": null,
        "regionName": null,
        "variant": null
    },
    {
        "isoName": "Tajik",
        "nativeName": "\u0442\u043e\u04b7\u0438\u043a\u04e3,\u00a0to\u00e7ik\u012b,\u00a0\u062a\u0627\u062c\u06cc\u06a9\u06cc\u200e",
        "id": "tg_TJ",
        "code": "tg",
        "region": "TJ",
        "regionName": "Tajikistan",
        "variant": null
    },
    {
        "isoName": "Thai",
        "nativeName": "\u0e44\u0e17\u0e22",
        "id": "th",
        "code": "th",
        "region": null,
        "regionName": null,
        "variant": null
    },
    {
        "isoName": "Thai",
        "nativeName": "\u0e44\u0e17\u0e22",
        "id": "th_TH",
        "code": "th",
        "region": "TH",
        "regionName": "Thailand",
        "variant": null
    },
    {
        "isoName": "Chitwania Tharu",
        "nativeName": "Chitwania Tharu",
        "id": "the",
        "code": "the",
        "region": null,
        "regionName": null,
        "variant": null
    },
    {
        "isoName": "Chitwania Tharu",
        "nativeName": "Chitwania Tharu",
        "id": "the_NP",
        "code": "the",
        "region": "NP",
        "regionName": "Nepal",
        "variant": null
    },
    {
        "isoName": "Tigrinya",
        "nativeName": "\u1275\u130d\u122d\u129b",
        "id": "ti",
        "code": "ti",
        "region": null,
        "regionName": null,
        "variant": null
    },
    {
        "isoName": "Tigrinya",
        "nativeName": "\u1275\u130d\u122d\u129b",
        "id": "ti_ER",
        "code": "ti",
        "region": "ER",
        "regionName": "Eritrea",
        "variant": null
    },
    {
        "isoName": "Tigrinya",
        "nativeName": "\u1275\u130d\u122d\u129b",
        "id": "ti_ET",
        "code": "ti",
        "region": "ET",
        "regionName": "Ethiopia",
        "variant": null
    },
    {
        "isoName": "Tigre",
        "nativeName": "Tigre",
        "id": "tig",
        "code": "tig",
        "region": null,
        "regionName": null,
        "variant": null
    },
    {
        "isoName": "Tigre",
        "nativeName": "Tigre",
        "id": "tig_ER",
        "code": "tig",
        "region": "ER",
        "regionName": "Eritrea",
        "variant": null
    },
    {
        "isoName": "Turkmen",
        "nativeName": "T\u00fcrkmen, \u0422\u04af\u0440\u043a\u043c\u0435\u043d",
        "id": "tk",
        "code": "tk",
        "region": null,
        "regionName": null,
        "variant": null
    },
    {
        "isoName": "Turkmen",
        "nativeName": "T\u00fcrkmen, \u0422\u04af\u0440\u043a\u043c\u0435\u043d",
        "id": "tk_TM",
        "code": "tk",
        "region": "TM",
        "regionName": "Turkmenistan",
        "variant": null
    },
    {
        "isoName": "Tagalog",
        "nativeName": "Wikang Tagalog",
        "id": "tl",
        "code": "tl",
        "region": null,
        "regionName": null,
        "variant": null
    },
    {
        "isoName": "Tagalog",
        "nativeName": "Wikang Tagalog",
        "id": "tl_PH",
        "code": "tl",
        "region": "PH",
        "regionName": "Philippines",
        "variant": null
    },
    {
        "isoName": "Klingon",
        "nativeName": "tlhIngan Hol",
        "id": "tlh",
        "code": "tlh",
        "region": null,
        "regionName": null,
        "variant": null
    },
    {
        "isoName": "Tswana",
        "nativeName": "Setswana",
        "id": "tn",
        "code": "tn",
        "region": null,
        "regionName": null,
        "variant": null
    },
    {
        "isoName": "Tswana",
        "nativeName": "Setswana",
        "id": "tn_ZA",
        "code": "tn",
        "region": "ZA",
        "regionName": "South Africa",
        "variant": null
    },
    {
        "isoName": "Tongan\u00a0(Tonga Islands)",
        "nativeName": "Faka Tonga",
        "id": "to",
        "code": "to",
        "region": null,
        "regionName": null,
        "variant": null
    },
    {
        "isoName": "Tongan\u00a0(Tonga Islands)",
        "nativeName": "Faka Tonga",
        "id": "to_TO",
        "code": "to",
        "region": "TO",
        "regionName": "Tonga",
        "variant": null
    },
    {
        "isoName": "Tok Pisin",
        "nativeName": "Tok Pisin",
        "id": "tpi",
        "code": "tpi",
        "region": null,
        "regionName": null,
        "variant": null
    },
    {
        "isoName": "Tok Pisin",
        "nativeName": "Tok Pisin",
        "id": "tpi_PG",
        "code": "tpi",
        "region": "PG",
        "regionName": "Papua New Guinea",
        "variant": null
    },
    {
        "isoName": "Turkish",
        "nativeName": "T\u00fcrk\u00e7e",
        "id": "tr",
        "code": "tr",
        "region": null,
        "regionName": null,
        "variant": null
    },
    {
        "isoName": "Turkish",
        "nativeName": "T\u00fcrk\u00e7e",
        "id": "tr_CY",
        "code": "tr",
        "region": "CY",
        "regionName": "Cyprus",
        "variant": null
    },
    {
        "isoName": "Turkish",
        "nativeName": "T\u00fcrk\u00e7e",
        "id": "tr_TR",
        "code": "tr",
        "region": "TR",
        "regionName": "Turkey",
        "variant": null
    },
    {
        "isoName": "Tsonga",
        "nativeName": "Xitsonga",
        "id": "ts",
        "code": "ts",
        "region": null,
        "regionName": null,
        "variant": null
    },
    {
        "isoName": "Tsonga",
        "nativeName": "Xitsonga",
        "id": "ts_ZA",
        "code": "ts",
        "region": "ZA",
        "regionName": "South Africa",
        "variant": null
    },
    {
        "isoName": "Tatar",
        "nativeName": "\u0442\u0430\u0442\u0430\u0440 \u0442\u0435\u043b\u0435,\u00a0tatar tele",
        "id": "tt",
        "code": "tt",
        "region": null,
        "regionName": null,
        "variant": null
    },
    {
        "isoName": "Tatar",
        "nativeName": "\u0442\u0430\u0442\u0430\u0440 \u0442\u0435\u043b\u0435,\u00a0tatar tele",
        "id": "tt_RU",
        "code": "tt",
        "region": "RU",
        "regionName": "Russian Federation",
        "variant": null
    },
    {
        "isoName": "Tatar",
        "nativeName": "\u0442\u0430\u0442\u0430\u0440 \u0442\u0435\u043b\u0435,\u00a0tatar tele",
        "id": "tt_RU@iqtelif",
        "code": "tt",
        "region": null,
        "regionName": null,
        "variant": "RU@iqtelif"
    },
    {
        "isoName": "Tasawaq",
        "nativeName": "Tasawaq",
        "id": "twq",
        "code": "twq",
        "region": null,
        "regionName": null,
        "variant": null
    },
    {
        "isoName": "Talossan",
        "nativeName": "Talossan",
        "id": "tzl",
        "code": "tzl",
        "region": null,
        "regionName": null,
        "variant": null
    },
    {
        "isoName": "Tamazight, Central Atlas",
        "nativeName": "\u2d5c\u2d4e\u2d30\u2d63\u2d49\u2d56\u2d5c",
        "id": "tzm",
        "code": "tzm",
        "region": null,
        "regionName": null,
        "variant": null
    },
    {
        "isoName": "Tamazight, Central Atlas",
        "nativeName": "\u2d5c\u2d4e\u2d30\u2d63\u2d49\u2d56\u2d5c",
        "id": "tzm_Latn",
        "code": "tzm",
        "region": null,
        "regionName": null,
        "variant": "Latin"
    },
    {
        "isoName": "Uighur, Uyghur",
        "nativeName": "Uy\u01a3urq\u0259, \u202b\u0626\u06c7\u064a\u063a\u06c7\u0631\u0686",
        "id": "ug",
        "code": "ug",
        "region": null,
        "regionName": null,
        "variant": null
    },
    {
        "isoName": "Uighur, Uyghur",
        "nativeName": "Uy\u01a3urq\u0259, \u202b\u0626\u06c7\u064a\u063a\u06c7\u0631\u0686",
        "id": "ug_CN",
        "code": "ug",
        "region": "CN",
        "regionName": "China",
        "variant": null
    },
    {
        "isoName": "Ukrainian",
        "nativeName": "\u0423\u043a\u0440\u0430\u0457\u043d\u0441\u044c\u043a\u0430",
        "id": "uk",
        "code": "uk",
        "region": null,
        "regionName": null,
        "variant": null
    },
    {
        "isoName": "Ukrainian",
        "nativeName": "\u0423\u043a\u0440\u0430\u0457\u043d\u0441\u044c\u043a\u0430",
        "id": "uk_UA",
        "code": "uk",
        "region": "UA",
        "regionName": "Ukraine",
        "variant": null
    },
    {
        "isoName": "Unami",
        "nativeName": "Unami",
        "id": "unm",
        "code": "unm",
        "region": null,
        "regionName": null,
        "variant": null
    },
    {
        "isoName": "Unami",
        "nativeName": "Unami",
        "id": "unm_US",
        "code": "unm",
        "region": "US",
        "regionName": "United States of America",
        "variant": null
    },
    {
        "isoName": "Urdu",
        "nativeName": "\u0627\u0631\u062f\u0648",
        "id": "ur",
        "code": "ur",
        "region": null,
        "regionName": null,
        "variant": null
    },
    {
        "isoName": "Urdu",
        "nativeName": "\u0627\u0631\u062f\u0648",
        "id": "ur_IN",
        "code": "ur",
        "region": "IN",
        "regionName": "India",
        "variant": null
    },
    {
        "isoName": "Urdu",
        "nativeName": "\u0627\u0631\u062f\u0648",
        "id": "ur_PK",
        "code": "ur",
        "region": "PK",
        "regionName": "Pakistan",
        "variant": null
    },
    {
        "isoName": "Uzbek",
        "nativeName": "O\u02bbzbek,\u00a0\u040e\u0437\u0431\u0435\u043a,\u00a0\u0623\u06c7\u0632\u0628\u06d0\u0643\u200e",
        "id": "uz",
        "code": "uz",
        "region": null,
        "regionName": null,
        "variant": null
    },
    {
        "isoName": "Uzbek",
        "nativeName": "O\u02bbzbek,\u00a0\u040e\u0437\u0431\u0435\u043a,\u00a0\u0623\u06c7\u0632\u0628\u06d0\u0643\u200e",
        "id": "uz_Arab",
        "code": "uz",
        "region": null,
        "regionName": null,
        "variant": "Arab"
    },
    {
        "isoName": "Uzbek",
        "nativeName": "O\u02bbzbek,\u00a0\u040e\u0437\u0431\u0435\u043a,\u00a0\u0623\u06c7\u0632\u0628\u06d0\u0643\u200e",
        "id": "uz_Cyrl",
        "code": "uz",
        "region": null,
        "regionName": null,
        "variant": "Cyrillic"
    },
    {
        "isoName": "Uzbek",
        "nativeName": "O\u02bbzbek,\u00a0\u040e\u0437\u0431\u0435\u043a,\u00a0\u0623\u06c7\u0632\u0628\u06d0\u0643\u200e",
        "id": "uz_Latn",
        "code": "uz",
        "region": null,
        "regionName": null,
        "variant": "Latin"
    },
    {
        "isoName": "Uzbek",
        "nativeName": "O\u02bbzbek,\u00a0\u040e\u0437\u0431\u0435\u043a,\u00a0\u0623\u06c7\u0632\u0628\u06d0\u0643\u200e",
        "id": "uz_UZ",
        "code": "uz",
        "region": "UZ",
        "regionName": "Uzbekistan",
        "variant": null
    },
    {
        "isoName": "Uzbek",
        "nativeName": "O\u02bbzbek,\u00a0\u040e\u0437\u0431\u0435\u043a,\u00a0\u0623\u06c7\u0632\u0628\u06d0\u0643\u200e",
        "id": "uz_UZ@cyrillic",
        "code": "uz",
        "region": null,
        "regionName": null,
        "variant": "UZ@cyrillic"
    },
    {
        "isoName": "Vai",
        "nativeName": "Vai",
        "id": "vai",
        "code": "vai",
        "region": null,
        "regionName": null,
        "variant": null
    },
    {
        "isoName": "Vai",
        "nativeName": "Vai",
        "id": "vai_Latn",
        "code": "vai",
        "region": null,
        "regionName": null,
        "variant": "Latin"
    },
    {
        "isoName": "Vai",
        "nativeName": "Vai",
        "id": "vai_Vaii",
        "code": "vai",
        "region": null,
        "regionName": null,
        "variant": "Vaii"
    },
    {
        "isoName": "Venda",
        "nativeName": "Tshiven\u1e13a",
        "id": "ve",
        "code": "ve",
        "region": null,
        "regionName": null,
        "variant": null
    },
    {
        "isoName": "Venda",
        "nativeName": "Tshiven\u1e13a",
        "id": "ve_ZA",
        "code": "ve",
        "region": "ZA",
        "regionName": "South Africa",
        "variant": null
    },
    {
        "isoName": "Vietnamese",
        "nativeName": "Ti\u1ebfng Vi\u1ec7t",
        "id": "vi",
        "code": "vi",
        "region": null,
        "regionName": null,
        "variant": null
    },
    {
        "isoName": "Vietnamese",
        "nativeName": "Ti\u1ebfng Vi\u1ec7t",
        "id": "vi_VN",
        "code": "vi",
        "region": "VN",
        "regionName": "Viet Nam",
        "variant": null
    },
    {
        "isoName": "Volap\u00fck",
        "nativeName": "Volap\u00fck",
        "id": "vo",
        "code": "vo",
        "region": null,
        "regionName": null,
        "variant": null
    },
    {
        "isoName": "Vunjo",
        "nativeName": "Vunjo",
        "id": "vun",
        "code": "vun",
        "region": null,
        "regionName": null,
        "variant": null
    },
    {
        "isoName": "Walloon",
        "nativeName": "Walon",
        "id": "wa",
        "code": "wa",
        "region": null,
        "regionName": null,
        "variant": null
    },
    {
        "isoName": "Walloon",
        "nativeName": "Walon",
        "id": "wa_BE",
        "code": "wa",
        "region": "BE",
        "regionName": "Belgium",
        "variant": null
    },
    {
        "isoName": "Walser",
        "nativeName": "Walser",
        "id": "wae",
        "code": "wae",
        "region": null,
        "regionName": null,
        "variant": null
    },
    {
        "isoName": "Walser",
        "nativeName": "Walser",
        "id": "wae_CH",
        "code": "wae",
        "region": "CH",
        "regionName": "Switzerland",
        "variant": null
    },
    {
        "isoName": "Wolaytta",
        "nativeName": "Wolaytta",
        "id": "wal",
        "code": "wal",
        "region": null,
        "regionName": null,
        "variant": null
    },
    {
        "isoName": "Wolaytta",
        "nativeName": "Wolaytta",
        "id": "wal_ET",
        "code": "wal",
        "region": "ET",
        "regionName": "Ethiopia",
        "variant": null
    },
    {
        "isoName": "Wolof",
        "nativeName": "Wollof",
        "id": "wo",
        "code": "wo",
        "region": null,
        "regionName": null,
        "variant": null
    },
    {
        "isoName": "Wolof",
        "nativeName": "Wollof",
        "id": "wo_SN",
        "code": "wo",
        "region": "SN",
        "regionName": "Senegal",
        "variant": null
    },
    {
        "isoName": "Xhosa",
        "nativeName": "isiXhosa",
        "id": "xh",
        "code": "xh",
        "region": null,
        "regionName": null,
        "variant": null
    },
    {
        "isoName": "Xhosa",
        "nativeName": "isiXhosa",
        "id": "xh_ZA",
        "code": "xh",
        "region": "ZA",
        "regionName": "South Africa",
        "variant": null
    },
    {
        "isoName": "Soga",
        "nativeName": "Soga",
        "id": "xog",
        "code": "xog",
        "region": null,
        "regionName": null,
        "variant": null
    },
    {
        "isoName": "Yangben",
        "nativeName": "Yangben",
        "id": "yav",
        "code": "yav",
        "region": null,
        "regionName": null,
        "variant": null
    },
    {
        "isoName": "Yiddish",
        "nativeName": "\u05d9\u05d9\u05b4\u05d3\u05d9\u05e9",
        "id": "yi",
        "code": "yi",
        "region": null,
        "regionName": null,
        "variant": null
    },
    {
        "isoName": "Yiddish",
        "nativeName": "\u05d9\u05d9\u05b4\u05d3\u05d9\u05e9",
        "id": "yi_US",
        "code": "yi",
        "region": "US",
        "regionName": "United States of America",
        "variant": null
    },
    {
        "isoName": "Yoruba",
        "nativeName": "Yor\u00f9b\u00e1",
        "id": "yo",
        "code": "yo",
        "region": null,
        "regionName": null,
        "variant": null
    },
    {
        "isoName": "Yoruba",
        "nativeName": "Yor\u00f9b\u00e1",
        "id": "yo_BJ",
        "code": "yo",
        "region": "BJ",
        "regionName": "Benin",
        "variant": null
    },
    {
        "isoName": "Yoruba",
        "nativeName": "Yor\u00f9b\u00e1",
        "id": "yo_NG",
        "code": "yo",
        "region": "NG",
        "regionName": "Nigeria",
        "variant": null
    },
    {
        "isoName": "Cantonese",
        "nativeName": "Cantonese",
        "id": "yue",
        "code": "yue",
        "region": null,
        "regionName": null,
        "variant": null
    },
    {
        "isoName": "Cantonese",
        "nativeName": "Cantonese",
        "id": "yue_HK",
        "code": "yue",
        "region": "HK",
        "regionName": "Hong Kong",
        "variant": null
    },
    {
        "isoName": "Cantonese",
        "nativeName": "Cantonese",
        "id": "yue_Hans",
        "code": "yue",
        "region": null,
        "regionName": null,
        "variant": "Hans"
    },
    {
        "isoName": "Cantonese",
        "nativeName": "Cantonese",
        "id": "yue_Hant",
        "code": "yue",
        "region": null,
        "regionName": null,
        "variant": "Hant"
    },
    {
        "isoName": "Yau (Morobe Province)",
        "nativeName": "Yau (Morobe Province)",
        "id": "yuw",
        "code": "yuw",
        "region": null,
        "regionName": null,
        "variant": null
    },
    {
        "isoName": "Yau (Morobe Province)",
        "nativeName": "Yau (Morobe Province)",
        "id": "yuw_PG",
        "code": "yuw",
        "region": "PG",
        "regionName": "Papua New Guinea",
        "variant": null
    },
    {
        "isoName": "Standard Moroccan Tamazight",
        "nativeName": "Standard Moroccan Tamazight",
        "id": "zgh",
        "code": "zgh",
        "region": null,
        "regionName": null,
        "variant": null
    },
    {
        "isoName": "Chinese",
        "nativeName": "\u4e2d\u6587\u00a0(Zh\u014dngw\u00e9n),\u00a0\u6c49\u8bed,\u00a0\u6f22\u8a9e",
        "id": "zh",
        "code": "zh",
        "region": null,
        "regionName": null,
        "variant": null
    },
    {
        "isoName": "Chinese",
        "nativeName": "\u4e2d\u6587\u00a0(Zh\u014dngw\u00e9n),\u00a0\u6c49\u8bed,\u00a0\u6f22\u8a9e",
        "id": "zh_CN",
        "code": "zh",
        "region": "CN",
        "regionName": "China",
        "variant": null
    },
    {
        "isoName": "Chinese",
        "nativeName": "\u4e2d\u6587\u00a0(Zh\u014dngw\u00e9n),\u00a0\u6c49\u8bed,\u00a0\u6f22\u8a9e",
        "id": "zh_HK",
        "code": "zh",
        "region": "HK",
        "regionName": "Hong Kong",
        "variant": null
    },
    {
        "isoName": "Chinese",
        "nativeName": "\u4e2d\u6587\u00a0(Zh\u014dngw\u00e9n),\u00a0\u6c49\u8bed,\u00a0\u6f22\u8a9e",
        "id": "zh_Hans",
        "code": "zh",
        "region": null,
        "regionName": null,
        "variant": "Hans"
    },
    {
        "isoName": "Chinese",
        "nativeName": "\u4e2d\u6587\u00a0(Zh\u014dngw\u00e9n),\u00a0\u6c49\u8bed,\u00a0\u6f22\u8a9e",
        "id": "zh_Hans_HK",
        "code": "zh",
        "region": "HK",
        "regionName": "Hong Kong",
        "variant": "Hans"
    },
    {
        "isoName": "Chinese",
        "nativeName": "\u4e2d\u6587\u00a0(Zh\u014dngw\u00e9n),\u00a0\u6c49\u8bed,\u00a0\u6f22\u8a9e",
        "id": "zh_Hans_MO",
        "code": "zh",
        "region": "MO",
        "regionName": "Macao",
        "variant": "Hans"
    },
    {
        "isoName": "Chinese",
        "nativeName": "\u4e2d\u6587\u00a0(Zh\u014dngw\u00e9n),\u00a0\u6c49\u8bed,\u00a0\u6f22\u8a9e",
        "id": "zh_Hans_SG",
        "code": "zh",
        "region": "SG",
        "regionName": "Singapore",
        "variant": "Hans"
    },
    {
        "isoName": "Chinese",
        "nativeName": "\u4e2d\u6587\u00a0(Zh\u014dngw\u00e9n),\u00a0\u6c49\u8bed,\u00a0\u6f22\u8a9e",
        "id": "zh_Hant",
        "code": "zh",
        "region": null,
        "regionName": null,
        "variant": "Hant"
    },
    {
        "isoName": "Chinese",
        "nativeName": "\u4e2d\u6587\u00a0(Zh\u014dngw\u00e9n),\u00a0\u6c49\u8bed,\u00a0\u6f22\u8a9e",
        "id": "zh_Hant_HK",
        "code": "zh",
        "region": "HK",
        "regionName": "Hong Kong",
        "variant": "Hant"
    },
    {
        "isoName": "Chinese",
        "nativeName": "\u4e2d\u6587\u00a0(Zh\u014dngw\u00e9n),\u00a0\u6c49\u8bed,\u00a0\u6f22\u8a9e",
        "id": "zh_Hant_MO",
        "code": "zh",
        "region": "MO",
        "regionName": "Macao",
        "variant": "Hant"
    },
    {
        "isoName": "Chinese",
        "nativeName": "\u4e2d\u6587\u00a0(Zh\u014dngw\u00e9n),\u00a0\u6c49\u8bed,\u00a0\u6f22\u8a9e",
        "id": "zh_Hant_TW",
        "code": "zh",
        "region": "TW",
        "regionName": "Taiwan",
        "variant": "Hant"
    },
    {
        "isoName": "Chinese",
        "nativeName": "\u4e2d\u6587\u00a0(Zh\u014dngw\u00e9n),\u00a0\u6c49\u8bed,\u00a0\u6f22\u8a9e",
        "id": "zh_MO",
        "code": "zh",
        "region": "MO",
        "regionName": "Macao",
        "variant": null
    },
    {
        "isoName": "Chinese",
        "nativeName": "\u4e2d\u6587\u00a0(Zh\u014dngw\u00e9n),\u00a0\u6c49\u8bed,\u00a0\u6f22\u8a9e",
        "id": "zh_SG",
        "code": "zh",
        "region": "SG",
        "regionName": "Singapore",
        "variant": null
    },
    {
        "isoName": "Chinese",
        "nativeName": "\u4e2d\u6587\u00a0(Zh\u014dngw\u00e9n),\u00a0\u6c49\u8bed,\u00a0\u6f22\u8a9e",
        "id": "zh_TW",
        "code": "zh",
        "region": "TW",
        "regionName": "Taiwan",
        "variant": null
    },
    {
        "isoName": "Chinese",
        "nativeName": "\u4e2d\u6587\u00a0(Zh\u014dngw\u00e9n),\u00a0\u6c49\u8bed,\u00a0\u6f22\u8a9e",
        "id": "zh_YUE",
        "code": "zh",
        "region": "YUE",
        "regionName": "YUE",
        "variant": null
    },
    {
        "isoName": "Zulu",
        "nativeName": "isiZulu",
        "id": "zu",
        "code": "zu",
        "region": null,
        "regionName": null,
        "variant": null
    },
    {
        "isoName": "Zulu",
        "nativeName": "isiZulu",
        "id": "zu_ZA",
        "code": "zu",
        "region": "ZA",
        "regionName": "South Africa",
        "variant": null
    }
]